{"type": "FeatureCollection",
 "bbox": [ 8.477432, 47.337619, 8.586061, 47.41593],
 "features": [
  {"geometry":{"coordinates":[8.540655,47.36665],"type":"Point"},"id":"poi_zueriwc_view.1","properties":{"adr_inter":"","adresse":"Bürkliplatz 1","adrzus_int":"","behindertenparkplatz":"0","bemerkung":"WC-Anlage mit Personal. Nachts geschlossen. Gebührenfrei.<BR>Nächstes offenes WC beim Bürklisteg ZSG","ccmail":"","da":"Umwelt- und Gesundheitsschutz","datum":"202511061639","datum_cms":null,"dep":"Gesundheits- und Umweltdepartement (GUD)","editor":"geoang","erforderlichedokumente":"","fax":"","gebuehren":"Gebührenfrei","geometrie_gdo":null,"hausnummer":"1","hindernisfreiheit":"0__","infrastruktur":";NULL","isbetriebsferien_gebaeude":"1","isbetriebsferien_schalter":"0","kategorie":"WC (nicht rollstuhlgängig)","kommentar":"Bediente Anlage.","kreis":1,"mail":"ugz-zueriwc@zuerich.ch","name":"Bürkliplatz (nicht rollstuhlgängig)","namenzus":"","objectid":1,"oeffnungsz":"Ganzjährig 6.30-21.45 Uhr geöffnet. Im Winter nur bis 20.45 Uhr.","oeffnungszeiten_gebaeude_di":"n.a.","oeffnungszeiten_gebaeude_do":"n.a.","oeffnungszeiten_gebaeude_fr":"n.a.","oeffnungszeiten_gebaeude_mi":"n.a.","oeffnungszeiten_gebaeude_mo":"n.a.","oeffnungszeiten_gebaeude_sa":"n.a.","oeffnungszeiten_gebaeude_so":"n.a.","oeffnungszeiten_schalter_di":"n.a.","oeffnungszeiten_schalter_do":"n.a.","oeffnungszeiten_schalter_fr":"n.a.","oeffnungszeiten_schalter_mi":"n.a.","oeffnungszeiten_schalter_mo":"n.a.","oeffnungszeiten_schalter_sa":"n.a.","oeffnungszeiten_schalter_so":"n.a.","ort":"Zürich","plz":"8001","poi_id":"wc004","postadresse":"","publish_internet":"1","standort":"Ecke Bahnhofstrasse/Bürkliplatz 1","strasse":"Bürkliplatz","suchen":"Toilette, Toiletten","tel":"+41 44 412 43 65","tel2":"","typ":"nicht rollstuhlgängig","www":"https://www.stadt-zuerich.ch/zueriwc","zahlungsmittel_internet":"NULL;NULL;","zahlungsmittel_schalter":"NULL;NULL;","zahlungsmittel_telefon":"NULL;NULL;","zvv_label":"Bürkliplatz 1","zvv_link":"https://www.zvv.ch/de/fahrplan-und-informationen/fahrplan.html?tolat=47.3666463163075&tolon=8.5406544932702&toname=Zürich, Bürkliplatz 1"},"type":"Feature"}
 ,{"geometry":{"coordinates":[8.519114,47.368598],"type":"Point"},"id":"poi_zueriwc_view.2","properties":{"adr_inter":null,"adresse":"Schlossgasse 21","adrzus_int":null,"behindertenparkplatz":null,"bemerkung":null,"ccmail":null,"da":"Umwelt- und Gesundheitsschutz","datum":"202412161145","datum_cms":null,"dep":"Gesundheits- und Umweltdepartement (GUD)","editor":"ugzfir","erforderlichedokumente":null,"fax":null,"gebuehren":"Gebührenfrei","geometrie_gdo":null,"hausnummer":"21","hindernisfreiheit":"0__","infrastruktur":";Geöffnet 24h. Gebührenfrei","isbetriebsferien_gebaeude":"1","isbetriebsferien_schalter":"0","kategorie":"WC (nicht rollstuhlgängig)","kommentar":"Multifunktions-WC.","kreis":3,"mail":"ugz-zueriwc@zuerich.ch","name":"Kollerwiese (nicht rollstuhlgängig)","namenzus":null,"objectid":2,"oeffnungsz":"24 h","oeffnungszeiten_gebaeude_di":"n.a.","oeffnungszeiten_gebaeude_do":"n.a.","oeffnungszeiten_gebaeude_fr":"n.a.","oeffnungszeiten_gebaeude_mi":"n.a.","oeffnungszeiten_gebaeude_mo":"n.a.","oeffnungszeiten_gebaeude_sa":"n.a.","oeffnungszeiten_gebaeude_so":"n.a.","oeffnungszeiten_schalter_di":"n.a.","oeffnungszeiten_schalter_do":"n.a.","oeffnungszeiten_schalter_fr":"n.a.","oeffnungszeiten_schalter_mi":"n.a.","oeffnungszeiten_schalter_mo":"n.a.","oeffnungszeiten_schalter_sa":"n.a.","oeffnungszeiten_schalter_so":"n.a.","ort":"Zürich","plz":"8003","poi_id":"wc030","postadresse":null,"publish_internet":"0","standort":"Schlossgasse 21 / Ecke Steinstrasse","strasse":"Schlossgasse","suchen":"Toilette, Toiletten","tel":"+41 44 412 43 65","tel2":null,"typ":"nicht rollstuhlgängig","www":"https://www.stadt-zuerich.ch/zueriwc","zahlungsmittel_internet":"NULL;NULL;","zahlungsmittel_schalter":"NULL;NULL;","zahlungsmittel_telefon":"NULL;NULL;","zvv_label":"Schlossgasse 21","zvv_link":"https://www.zvv.ch/de/fahrplan-und-informationen/fahrplan.html?toname=Zürich, Schlossgasse 21"},"type":"Feature"}
 ,{"geometry":{"coordinates":[8.508398,47.365064],"type":"Point"},"id":"poi_zueriwc_view.3","properties":{"adr_inter":null,"adresse":"Friesenbergstrasse 130","adrzus_int":null,"behindertenparkplatz":null,"bemerkung":null,"ccmail":null,"da":"Umwelt- und Gesundheitsschutz","datum":"202412161145","datum_cms":null,"dep":"Gesundheits- und Umweltdepartement (GUD)","editor":"ugzget","erforderlichedokumente":null,"fax":null,"gebuehren":"Gebührenfrei.","geometrie_gdo":null,"hausnummer":"130","hindernisfreiheit":"0__","infrastruktur":";Geöffnet 24h. Gebührenfrei","isbetriebsferien_gebaeude":"1","isbetriebsferien_schalter":"0","kategorie":"WC (nicht rollstuhlgängig)","kommentar":"Multifunktions-WC beim neu gestalteten Spielplatz.","kreis":3,"mail":"ugz-zueriwc@zuerich.ch","name":"Wasserschöpfi (nicht rollstuhlgängig)","namenzus":null,"objectid":3,"oeffnungsz":"24 h","oeffnungszeiten_gebaeude_di":"n.a.","oeffnungszeiten_gebaeude_do":"n.a.","oeffnungszeiten_gebaeude_fr":"n.a.","oeffnungszeiten_gebaeude_mi":"n.a.","oeffnungszeiten_gebaeude_mo":"n.a.","oeffnungszeiten_gebaeude_sa":"n.a.","oeffnungszeiten_gebaeude_so":"n.a.","oeffnungszeiten_schalter_di":"n.a.","oeffnungszeiten_schalter_do":"n.a.","oeffnungszeiten_schalter_fr":"n.a.","oeffnungszeiten_schalter_mi":"n.a.","oeffnungszeiten_schalter_mo":"n.a.","oeffnungszeiten_schalter_sa":"n.a.","oeffnungszeiten_schalter_so":"n.a.","ort":"Zürich","plz":"8055","poi_id":"wc034","postadresse":null,"publish_internet":"1","standort":"Friesenbergstrasse 130 / Ecke Wasserschöpfi","strasse":"Friesenbergstrasse","suchen":"Toilette, Toiletten","tel":"+41 44 412 43 65","tel2":null,"typ":"nicht rollstuhlgängig","www":"https://www.stadt-zuerich.ch/zueriwc","zahlungsmittel_internet":"NULL;NULL;","zahlungsmittel_schalter":"NULL;NULL;","zahlungsmittel_telefon":"NULL;NULL;","zvv_label":"Friesenbergstrasse 130","zvv_link":"https://www.zvv.ch/de/fahrplan-und-informationen/fahrplan.html?toname=Zürich, Friesenbergstrasse 130"},"type":"Feature"}
 ,{"geometry":{"coordinates":[8.531515,47.377423],"type":"Point"},"id":"poi_zueriwc_view.4","properties":{"adr_inter":null,"adresse":"Militärstrasse 45","adrzus_int":null,"behindertenparkplatz":null,"bemerkung":null,"ccmail":null,"da":"Umwelt- und Gesundheitsschutz","datum":"202412161145","datum_cms":null,"dep":"Gesundheits- und Umweltdepartement (GUD)","editor":"ugzget","erforderlichedokumente":null,"fax":null,"gebuehren":"Gebührenfrei","geometrie_gdo":null,"hausnummer":"45","hindernisfreiheit":"0__","infrastruktur":";Pissoir für Männer. Gebührenfrei","isbetriebsferien_gebaeude":"1","isbetriebsferien_schalter":"0","kategorie":"WC (nicht rollstuhlgängig)","kommentar":"Zurzeit geschlossen","kreis":4,"mail":"ugz-zueriwc@zuerich.ch","name":"Militärstrasse (Pissoir)","namenzus":null,"objectid":4,"oeffnungsz":"24 h","oeffnungszeiten_gebaeude_di":"n.a.","oeffnungszeiten_gebaeude_do":"n.a.","oeffnungszeiten_gebaeude_fr":"n.a.","oeffnungszeiten_gebaeude_mi":"n.a.","oeffnungszeiten_gebaeude_mo":"n.a.","oeffnungszeiten_gebaeude_sa":"n.a.","oeffnungszeiten_gebaeude_so":"n.a.","oeffnungszeiten_schalter_di":"n.a.","oeffnungszeiten_schalter_do":"n.a.","oeffnungszeiten_schalter_fr":"n.a.","oeffnungszeiten_schalter_mi":"n.a.","oeffnungszeiten_schalter_mo":"n.a.","oeffnungszeiten_schalter_sa":"n.a.","oeffnungszeiten_schalter_so":"n.a.","ort":"Zürich","plz":"8004","poi_id":"wc041","postadresse":null,"publish_internet":"0","standort":"beim Zeughaus.","strasse":"Militärstrasse","suchen":"Toilette, Toiletten","tel":"+41 44 412 43 65","tel2":null,"typ":"Pissoir","www":"https://www.stadt-zuerich.ch/zueriwc","zahlungsmittel_internet":"NULL;NULL;","zahlungsmittel_schalter":"NULL;NULL;","zahlungsmittel_telefon":"NULL;NULL;","zvv_label":"Militärstrasse 45","zvv_link":"https://www.zvv.ch/de/fahrplan-und-informationen/fahrplan.html?toname=Zürich, Militärstrasse 45"},"type":"Feature"}
 ,{"geometry":{"coordinates":[8.529743,47.376243],"type":"Point"},"id":"poi_zueriwc_view.5","properties":{"adr_inter":null,"adresse":"Zeughausstrasse 56","adrzus_int":null,"behindertenparkplatz":null,"bemerkung":null,"ccmail":null,"da":"Umwelt- und Gesundheitsschutz","datum":"202412161145","datum_cms":null,"dep":"Gesundheits- und Umweltdepartement (GUD)","editor":"ugzget","erforderlichedokumente":null,"fax":null,"gebuehren":"Gebührenfrei","geometrie_gdo":null,"hausnummer":"56","hindernisfreiheit":"0__","infrastruktur":";Pissoir für Männer. Gebührenfrei","isbetriebsferien_gebaeude":"1","isbetriebsferien_schalter":"0","kategorie":"WC (nicht rollstuhlgängig)","kommentar":"Zurzeit geschlossen.","kreis":4,"mail":"ugz-zueriwc@zuerich.ch","name":"Zeughausstrasse (Pissoir)","namenzus":null,"objectid":5,"oeffnungsz":"24 h","oeffnungszeiten_gebaeude_di":"n.a.","oeffnungszeiten_gebaeude_do":"n.a.","oeffnungszeiten_gebaeude_fr":"n.a.","oeffnungszeiten_gebaeude_mi":"n.a.","oeffnungszeiten_gebaeude_mo":"n.a.","oeffnungszeiten_gebaeude_sa":"n.a.","oeffnungszeiten_gebaeude_so":"n.a.","oeffnungszeiten_schalter_di":"n.a.","oeffnungszeiten_schalter_do":"n.a.","oeffnungszeiten_schalter_fr":"n.a.","oeffnungszeiten_schalter_mi":"n.a.","oeffnungszeiten_schalter_mo":"n.a.","oeffnungszeiten_schalter_sa":"n.a.","oeffnungszeiten_schalter_so":"n.a.","ort":"Zürich","plz":"8004","poi_id":"wc045","postadresse":null,"publish_internet":"0","standort":"Zeughausstr. 56 / Einmündung Rotwandstr.","strasse":"Zeughausstrasse","suchen":"Toilette, Toiletten","tel":"+41 44 412 43 65","tel2":null,"typ":"Pissoir","www":"https://www.stadt-zuerich.ch/zueriwc","zahlungsmittel_internet":"NULL;NULL;","zahlungsmittel_schalter":"NULL;NULL;","zahlungsmittel_telefon":"NULL;NULL;","zvv_label":"Zeughausstrasse 56","zvv_link":"https://www.zvv.ch/de/fahrplan-und-informationen/fahrplan.html?toname=Zürich, Zeughausstrasse 56"},"type":"Feature"}
 ,{"geometry":{"coordinates":[8.541306,47.366752],"type":"Point"},"id":"poi_zueriwc_view.6","properties":{"adr_inter":"","adresse":"Bürkliplatz 5","adrzus_int":"","behindertenparkplatz":"0","bemerkung":"Wegen Umgestaltung der Stadthausanlgae nicht zugänglich.","ccmail":"","da":"Umwelt- und Gesundheitsschutz","datum":"202511061640","datum_cms":null,"dep":"Gesundheits- und Umweltdepartement (GUD)","editor":"geoang","erforderlichedokumente":"","fax":"","gebuehren":"Gebührenfrei","geometrie_gdo":null,"hausnummer":"5","hindernisfreiheit":"0__","infrastruktur":";Pissoir für Männer. Gebührenfrei","isbetriebsferien_gebaeude":"1","isbetriebsferien_schalter":"0","kategorie":"WC (nicht rollstuhlgängig)","kommentar":"Pissoir","kreis":1,"mail":"ugz-zueriwc@zuerich.ch","name":"Bürkliplatz (Pissoir)","namenzus":"","objectid":6,"oeffnungsz":"24h","oeffnungszeiten_gebaeude_di":"n.a.","oeffnungszeiten_gebaeude_do":"n.a.","oeffnungszeiten_gebaeude_fr":"n.a.","oeffnungszeiten_gebaeude_mi":"n.a.","oeffnungszeiten_gebaeude_mo":"n.a.","oeffnungszeiten_gebaeude_sa":"n.a.","oeffnungszeiten_gebaeude_so":"n.a.","oeffnungszeiten_schalter_di":"n.a.","oeffnungszeiten_schalter_do":"n.a.","oeffnungszeiten_schalter_fr":"n.a.","oeffnungszeiten_schalter_mi":"n.a.","oeffnungszeiten_schalter_mo":"n.a.","oeffnungszeiten_schalter_sa":"n.a.","oeffnungszeiten_schalter_so":"n.a.","ort":"Zürich","plz":"8001","poi_id":"wc005","postadresse":"","publish_internet":"0","standort":"Bürkliplatz 5 / Fraumünsterstrasse","strasse":"Bürkliplatz","suchen":"Toilette, Toiletten","tel":"+41 44 412 43 65","tel2":"","typ":"Pissoir","www":"https://www.stadt-zuerich.ch/zueriwc","zahlungsmittel_internet":"NULL;NULL;","zahlungsmittel_schalter":"NULL;NULL;","zahlungsmittel_telefon":"NULL;NULL;","zvv_label":"Bürkliplatz 5","zvv_link":"https://www.zvv.ch/de/fahrplan-und-informationen/fahrplan.html?tolat=47.366748047835&tolon=8.54130534723293&toname=Zürich, Bürkliplatz 5"},"type":"Feature"}
 ,{"geometry":{"coordinates":[8.562812,47.346845],"type":"Point"},"id":"poi_zueriwc_view.7","properties":{"adr_inter":"","adresse":"Bellerivestrasse 268","adrzus_int":"","behindertenparkplatz":"0","bemerkung":"","ccmail":"","da":"Umwelt- und Gesundheitsschutz","datum":"202511061640","datum_cms":null,"dep":"Gesundheits- und Umweltdepartement (GUD)","editor":"geoang","erforderlichedokumente":"","fax":"","gebuehren":"Gebührenfrei","geometrie_gdo":null,"hausnummer":"268","hindernisfreiheit":"0__","infrastruktur":";Geöffnet 24h von März bis Oktober. Gebührenfrei.","isbetriebsferien_gebaeude":"1","isbetriebsferien_schalter":"0","kategorie":"WC (nicht rollstuhlgängig)","kommentar":"Kombiniertes Damen- und Herren-WC, Pissoir. ","kreis":8,"mail":"ugz-zueriwc@zuerich.ch","name":"Hafen Tiefenbrunnen (nicht rollstuhlgängig)","namenzus":"","objectid":7,"oeffnungsz":"24 h. Geöffnet von März bis Oktober.","oeffnungszeiten_gebaeude_di":"n.a.","oeffnungszeiten_gebaeude_do":"n.a.","oeffnungszeiten_gebaeude_fr":"n.a.","oeffnungszeiten_gebaeude_mi":"n.a.","oeffnungszeiten_gebaeude_mo":"n.a.","oeffnungszeiten_gebaeude_sa":"n.a.","oeffnungszeiten_gebaeude_so":"n.a.","oeffnungszeiten_schalter_di":"n.a.","oeffnungszeiten_schalter_do":"n.a.","oeffnungszeiten_schalter_fr":"n.a.","oeffnungszeiten_schalter_mi":"n.a.","oeffnungszeiten_schalter_mo":"n.a.","oeffnungszeiten_schalter_sa":"n.a.","oeffnungszeiten_schalter_so":"n.a.","ort":"Zürich","plz":"8008","poi_id":"wc066","postadresse":"","publish_internet":"0","standort":"Bellerivestrasse 268, bei Kibag und Bildhauerin","strasse":"Bellerivestrasse","suchen":"Toilette, Toiletten","tel":"+41 44 412 43 65","tel2":"","typ":"nicht rollstuhlgängig","www":"https://www.stadt-zuerich.ch/zueriwc","zahlungsmittel_internet":"NULL;NULL;","zahlungsmittel_schalter":"NULL;NULL;","zahlungsmittel_telefon":"NULL;NULL;","zvv_label":"Bellerivestrasse 268","zvv_link":"https://www.zvv.ch/de/fahrplan-und-informationen/fahrplan.html?tolat=47.3468411366213&tolon=8.56281093042598&toname=Zürich, Bellerivestrasse 268"},"type":"Feature"}
 ,{"geometry":{"coordinates":[8.539977,47.381264],"type":"Point"},"id":"poi_zueriwc_view.8","properties":{"adr_inter":null,"adresse":"Platzpromenade 9","adrzus_int":null,"behindertenparkplatz":null,"bemerkung":null,"ccmail":null,"da":"Umwelt- und Gesundheitsschutz","datum":"202412161145","datum_cms":null,"dep":"Gesundheits- und Umweltdepartement (GUD)","editor":"ugzget","erforderlichedokumente":null,"fax":null,"gebuehren":"Gebührenfrei","geometrie_gdo":null,"hausnummer":"9","hindernisfreiheit":"0__","infrastruktur":";Park nachts geschlossen. Geöffnet März-Oktober. Gebührenfrei.","isbetriebsferien_gebaeude":"1","isbetriebsferien_schalter":"0","kategorie":"WC (nicht rollstuhlgängig)","kommentar":"Multifunktions-WC. Im Winter geschlossen. Bei der Walchebrücke findet sich ein ganzjährig geöffnetes, rollstuhlgängiges ZüriWC.","kreis":1,"mail":"ugz-zueriwc@zuerich.ch","name":"Platzspitz (nicht rollstuhlgängig)","namenzus":null,"objectid":8,"oeffnungsz":"Während der Öffnungszeiten des Parks von März bis Oktober.","oeffnungszeiten_gebaeude_di":"n.a.","oeffnungszeiten_gebaeude_do":"n.a.","oeffnungszeiten_gebaeude_fr":"n.a.","oeffnungszeiten_gebaeude_mi":"n.a.","oeffnungszeiten_gebaeude_mo":"n.a.","oeffnungszeiten_gebaeude_sa":"n.a.","oeffnungszeiten_gebaeude_so":"n.a.","oeffnungszeiten_schalter_di":"n.a.","oeffnungszeiten_schalter_do":"n.a.","oeffnungszeiten_schalter_fr":"n.a.","oeffnungszeiten_schalter_mi":"n.a.","oeffnungszeiten_schalter_mo":"n.a.","oeffnungszeiten_schalter_sa":"n.a.","oeffnungszeiten_schalter_so":"n.a.","ort":"Zürich","plz":"8001","poi_id":"wc011","postadresse":null,"publish_internet":"1","standort":"Platzpromenade 9 / Im Park Seite Limmat","strasse":"Platzpromenade","suchen":"Toilette, Toiletten","tel":"+41 44 412 43 65","tel2":null,"typ":"nicht rollstuhlgängig","www":"https://www.stadt-zuerich.ch/zueriwc","zahlungsmittel_internet":"NULL;NULL;","zahlungsmittel_schalter":"NULL;NULL;","zahlungsmittel_telefon":"NULL;NULL;","zvv_label":"Platzpromenade 9","zvv_link":"https://www.zvv.ch/de/fahrplan-und-informationen/fahrplan.html?toname=Zürich, Platzpromenade 9"},"type":"Feature"}
 ,{"geometry":{"coordinates":[8.553846,47.352922],"type":"Point"},"id":"poi_zueriwc_view.9","properties":{"adr_inter":null,"adresse":"Bellerivestrasse 170","adrzus_int":null,"behindertenparkplatz":null,"bemerkung":null,"ccmail":null,"da":"Umwelt- und Gesundheitsschutz","datum":"202412161145","datum_cms":null,"dep":"Gesundheits- und Umweltdepartement (GUD)","editor":"ugzget","erforderlichedokumente":null,"fax":null,"gebuehren":"Gebühr Fr. 1.--. Pissoir gratis.","geometrie_gdo":null,"hausnummer":"170","hindernisfreiheit":"0__","infrastruktur":";Geöffnet Betriebszeiten Lakeside. Gebühr Fr. 1.--. Pissoir gratis._Behinderten-WC (kein ZüriWC) im Restaurant.","isbetriebsferien_gebaeude":"1","isbetriebsferien_schalter":"0","kategorie":"WC (nicht rollstuhlgängig)","kommentar":"Damen- und Herren WC, Pissoir. RollstuhlfahrerInnen benützen das WC im Restaurant. Die Anlage wird vom Personal des Restaurants Lakeside betreut und gereinigt.","kreis":8,"mail":"ugz-zueriwc@zuerich.ch","name":"Zürichhorn, Lakeside (nicht rollstuhlgängig)","namenzus":null,"objectid":9,"oeffnungsz":"Nachts geschlossen.","oeffnungszeiten_gebaeude_di":"n.a.","oeffnungszeiten_gebaeude_do":"n.a.","oeffnungszeiten_gebaeude_fr":"n.a.","oeffnungszeiten_gebaeude_mi":"n.a.","oeffnungszeiten_gebaeude_mo":"n.a.","oeffnungszeiten_gebaeude_sa":"n.a.","oeffnungszeiten_gebaeude_so":"n.a.","oeffnungszeiten_schalter_di":"n.a.","oeffnungszeiten_schalter_do":"n.a.","oeffnungszeiten_schalter_fr":"n.a.","oeffnungszeiten_schalter_mi":"n.a.","oeffnungszeiten_schalter_mo":"n.a.","oeffnungszeiten_schalter_sa":"n.a.","oeffnungszeiten_schalter_so":"n.a.","ort":"Zürich","plz":"8008","poi_id":"wc072","postadresse":null,"publish_internet":"1","standort":"Kasino Zürichhorn","strasse":"Bellerivestrasse","suchen":"Toilette, Toiletten","tel":"+41 44 412 43 65","tel2":null,"typ":"nicht rollstuhlgängig","www":"https://www.stadt-zuerich.ch/zueriwc","zahlungsmittel_internet":"NULL;NULL;","zahlungsmittel_schalter":"NULL;NULL;","zahlungsmittel_telefon":"NULL;NULL;","zvv_label":"Bellerivestrasse 170","zvv_link":"https://www.zvv.ch/de/fahrplan-und-informationen/fahrplan.html?toname=Zürich, Bellerivestrasse 170"},"type":"Feature"}
 ,{"geometry":{"coordinates":[8.47814,47.374965],"type":"Point"},"id":"poi_zueriwc_view.10","properties":{"adr_inter":null,"adresse":"Albisriederstrasse 516","adrzus_int":null,"behindertenparkplatz":null,"bemerkung":null,"ccmail":null,"da":"Umwelt- und Gesundheitsschutz","datum":"202412161145","datum_cms":null,"dep":"Gesundheits- und Umweltdepartement (GUD)","editor":"ugzget","erforderlichedokumente":null,"fax":null,"gebuehren":"Gebührenfrei","geometrie_gdo":null,"hausnummer":"516","hindernisfreiheit":"0__","infrastruktur":";Geöffnet 24h von März bis Oktober. Gebührenfrei","isbetriebsferien_gebaeude":"1","isbetriebsferien_schalter":"0","kategorie":"WC (nicht rollstuhlgängig)","kommentar":"Multifunktions-WC.","kreis":9,"mail":"ugz-zueriwc@zuerich.ch","name":"Hasenrain (nicht rollstuhlgängig)","namenzus":null,"objectid":10,"oeffnungsz":"24 Std. von März bis Oktober.","oeffnungszeiten_gebaeude_di":"n.a.","oeffnungszeiten_gebaeude_do":"n.a.","oeffnungszeiten_gebaeude_fr":"n.a.","oeffnungszeiten_gebaeude_mi":"n.a.","oeffnungszeiten_gebaeude_mo":"n.a.","oeffnungszeiten_gebaeude_sa":"n.a.","oeffnungszeiten_gebaeude_so":"n.a.","oeffnungszeiten_schalter_di":"n.a.","oeffnungszeiten_schalter_do":"n.a.","oeffnungszeiten_schalter_fr":"n.a.","oeffnungszeiten_schalter_mi":"n.a.","oeffnungszeiten_schalter_mo":"n.a.","oeffnungszeiten_schalter_sa":"n.a.","oeffnungszeiten_schalter_so":"n.a.","ort":"Zürich","plz":"8047","poi_id":"wc075","postadresse":null,"publish_internet":"1","standort":"Hasenrainstr./Albisriederstrasse 516 beim Schiessplatz","strasse":"Albisriederstrasse","suchen":"Toilette, Toiletten","tel":"+41 44 412 43 65","tel2":null,"typ":"nicht rollstuhlgängig","www":"https://www.stadt-zuerich.ch/zueriwc","zahlungsmittel_internet":"NULL;NULL;","zahlungsmittel_schalter":"NULL;NULL;","zahlungsmittel_telefon":"NULL;NULL;","zvv_label":"Albisriederstrasse 516","zvv_link":"https://www.zvv.ch/de/fahrplan-und-informationen/fahrplan.html?toname=Zürich, Albisriederstrasse 516"},"type":"Feature"}
 ,{"geometry":{"coordinates":[8.584912,47.361524],"type":"Point"},"id":"poi_zueriwc_view.11","properties":{"adr_inter":null,"adresse":"Buchholzstrasse 53c","adrzus_int":null,"behindertenparkplatz":null,"bemerkung":null,"ccmail":null,"da":"Umwelt- und Gesundheitsschutz","datum":"202412161145","datum_cms":null,"dep":"Gesundheits- und Umweltdepartement (GUD)","editor":"ugzget","erforderlichedokumente":null,"fax":null,"gebuehren":"Gebührenfrei","geometrie_gdo":null,"hausnummer":"53c","hindernisfreiheit":"0__","infrastruktur":";Geöffnet 24h von März-Oktober. Gebührenfrei.","isbetriebsferien_gebaeude":"1","isbetriebsferien_schalter":"0","kategorie":"WC (nicht rollstuhlgängig)","kommentar":"Multifunktions-WC beim Spielplatz. Im Winter geschlossen.","kreis":7,"mail":"ugz-zueriwc@zuerich.ch","name":"Buchholz (nicht rollstuhlgängig)","namenzus":null,"objectid":11,"oeffnungsz":"24 h. März bis Oktober.","oeffnungszeiten_gebaeude_di":"n.a.","oeffnungszeiten_gebaeude_do":"n.a.","oeffnungszeiten_gebaeude_fr":"n.a.","oeffnungszeiten_gebaeude_mi":"n.a.","oeffnungszeiten_gebaeude_mo":"n.a.","oeffnungszeiten_gebaeude_sa":"n.a.","oeffnungszeiten_gebaeude_so":"n.a.","oeffnungszeiten_schalter_di":"n.a.","oeffnungszeiten_schalter_do":"n.a.","oeffnungszeiten_schalter_fr":"n.a.","oeffnungszeiten_schalter_mi":"n.a.","oeffnungszeiten_schalter_mo":"n.a.","oeffnungszeiten_schalter_sa":"n.a.","oeffnungszeiten_schalter_so":"n.a.","ort":"Zürich","plz":"8053","poi_id":"wc096","postadresse":null,"publish_internet":"1","standort":"Buchholzstrasse 53c/Stöckenhaldenweg, beim Spielplatz am Waldrand","strasse":"Buchholzstrasse","suchen":"Toilette, Toiletten","tel":"+41 44 412 43 65","tel2":null,"typ":"nicht rollstuhlgängig","www":"https://www.stadt-zuerich.ch/zueriwc","zahlungsmittel_internet":"NULL;NULL;","zahlungsmittel_schalter":"NULL;NULL;","zahlungsmittel_telefon":"NULL;NULL;","zvv_label":"Buchholzstrasse 53c","zvv_link":"https://www.zvv.ch/de/fahrplan-und-informationen/fahrplan.html?toname=Zürich, Buchholzstrasse 53c"},"type":"Feature"}
 ,{"geometry":{"coordinates":[8.521788,47.392707],"type":"Point"},"id":"poi_zueriwc_view.12","properties":{"adr_inter":null,"adresse":"Breitensteinstrasse 17a","adrzus_int":null,"behindertenparkplatz":null,"bemerkung":null,"ccmail":null,"da":"Umwelt- und Gesundheitsschutz","datum":"202412161145","datum_cms":null,"dep":"Gesundheits- und Umweltdepartement (GUD)","editor":"ugzget","erforderlichedokumente":null,"fax":null,"gebuehren":"Gebührenfrei","geometrie_gdo":null,"hausnummer":"17a","hindernisfreiheit":"0__","infrastruktur":";Geöffnet 24h. Gebührenfrei._WC mit Eurokey (kein ZüriWC) im GZ Wipkingen.","isbetriebsferien_gebaeude":"1","isbetriebsferien_schalter":"0","kategorie":"WC (nicht rollstuhlgängig)","kommentar":"2 Multifunktions-WCs. Ein Behinderten-WC mit Eurokey hat es beim nahen Gemeinschaftszentrum.","kreis":10,"mail":"ugz-zueriwc@zuerich.ch","name":"Wipkingerpark (nicht rollstuhlgängig)","namenzus":null,"objectid":12,"oeffnungsz":"24h","oeffnungszeiten_gebaeude_di":"n.a.","oeffnungszeiten_gebaeude_do":"n.a.","oeffnungszeiten_gebaeude_fr":"n.a.","oeffnungszeiten_gebaeude_mi":"n.a.","oeffnungszeiten_gebaeude_mo":"n.a.","oeffnungszeiten_gebaeude_sa":"n.a.","oeffnungszeiten_gebaeude_so":"n.a.","oeffnungszeiten_schalter_di":"n.a.","oeffnungszeiten_schalter_do":"n.a.","oeffnungszeiten_schalter_fr":"n.a.","oeffnungszeiten_schalter_mi":"n.a.","oeffnungszeiten_schalter_mo":"n.a.","oeffnungszeiten_schalter_sa":"n.a.","oeffnungszeiten_schalter_so":"n.a.","ort":"Zürich","plz":"8037","poi_id":"wc103","postadresse":null,"publish_internet":"1","standort":"Breitensteinstr. 17a / Am Wipkingerpark im Gebäude der SHL","strasse":"Breitensteinstrasse","suchen":"Toilette, Toiletten","tel":"+41 44 412 43 65","tel2":null,"typ":"nicht rollstuhlgängig","www":"https://www.stadt-zuerich.ch/zueriwc","zahlungsmittel_internet":"NULL;NULL;","zahlungsmittel_schalter":"NULL;NULL;","zahlungsmittel_telefon":"NULL;NULL;","zvv_label":"Breitensteinstrasse 17a","zvv_link":"https://www.zvv.ch/de/fahrplan-und-informationen/fahrplan.html?toname=Zürich, Breitensteinstrasse 17a"},"type":"Feature"}
 ,{"geometry":{"coordinates":[8.551418,47.355797],"type":"Point"},"id":"poi_zueriwc_view.13","properties":{"adr_inter":null,"adresse":"Bellerivestrasse 60","adrzus_int":null,"behindertenparkplatz":null,"bemerkung":null,"ccmail":null,"da":"Umwelt- und Gesundheitsschutz","datum":"202412161145","datum_cms":null,"dep":"Gesundheits- und Umweltdepartement (GUD)","editor":"ugzget","erforderlichedokumente":null,"fax":null,"gebuehren":"Gebührenfrei","geometrie_gdo":null,"hausnummer":"60","hindernisfreiheit":"0__","infrastruktur":";Geöffnet 24h. Gebührenfrei","isbetriebsferien_gebaeude":"1","isbetriebsferien_schalter":"0","kategorie":"WC (nicht rollstuhlgängig)","kommentar":"4 Multifunktions-WCs. Die Anlage befindet sich direkt am Spielplatz.","kreis":8,"mail":"ugz-zueriwc@zuerich.ch","name":"Blatterwiese - Spielplatz (nicht rollstuhlgängig)","namenzus":null,"objectid":13,"oeffnungsz":"24 h","oeffnungszeiten_gebaeude_di":"n.a.","oeffnungszeiten_gebaeude_do":"n.a.","oeffnungszeiten_gebaeude_fr":"n.a.","oeffnungszeiten_gebaeude_mi":"n.a.","oeffnungszeiten_gebaeude_mo":"n.a.","oeffnungszeiten_gebaeude_sa":"n.a.","oeffnungszeiten_gebaeude_so":"n.a.","oeffnungszeiten_schalter_di":"n.a.","oeffnungszeiten_schalter_do":"n.a.","oeffnungszeiten_schalter_fr":"n.a.","oeffnungszeiten_schalter_mi":"n.a.","oeffnungszeiten_schalter_mo":"n.a.","oeffnungszeiten_schalter_sa":"n.a.","oeffnungszeiten_schalter_so":"n.a.","ort":"Zürich","plz":"8008","poi_id":"wc105","postadresse":null,"publish_internet":"1","standort":"Direkt beim Spielplatz an der Blatterwiese, Bellerivestrasse 60","strasse":"Bellerivestrasse","suchen":"Toilette, Toiletten","tel":"+41 44 412 43 65","tel2":null,"typ":"nicht rollstuhlgängig","www":"https://www.stadt-zuerich.ch/zueriwc","zahlungsmittel_internet":"NULL;NULL;","zahlungsmittel_schalter":"NULL;NULL;","zahlungsmittel_telefon":"NULL;NULL;","zvv_label":"Bellerivestrasse 60","zvv_link":"https://www.zvv.ch/de/fahrplan-und-informationen/fahrplan.html?toname=Zürich, Bellerivestrasse 60"},"type":"Feature"}
 ,{"geometry":{"coordinates":[8.540656,47.415358],"type":"Point"},"id":"poi_zueriwc_view.14","properties":{"adr_inter":null,"adresse":"Fritz-Heeb-Weg 13","adrzus_int":null,"behindertenparkplatz":null,"bemerkung":null,"ccmail":null,"da":"Umwelt- und Gesundheitsschutz","datum":"202412161145","datum_cms":null,"dep":"Gesundheits- und Umweltdepartement (GUD)","editor":"ugzget","erforderlichedokumente":null,"fax":null,"gebuehren":"Gebührenfrei","geometrie_gdo":null,"hausnummer":"13","hindernisfreiheit":"0__","infrastruktur":";Geöffnet 24h. Gebührenfrei","isbetriebsferien_gebaeude":"1","isbetriebsferien_schalter":"0","kategorie":"WC (nicht rollstuhlgängig)","kommentar":"Multifunktions-WC. Ein Behinderten-WC befindet sich im Turnhallentrakt des Schulhauses. Im nahen Oerlikerpark steht ebenfalls ein behindertengerechtes ZüriWC.","kreis":11,"mail":"ugz-zueriwc@zuerich.ch","name":"Wahlenpark (nicht rollstuhlgängig)","namenzus":null,"objectid":14,"oeffnungsz":"24 h","oeffnungszeiten_gebaeude_di":"n.a.","oeffnungszeiten_gebaeude_do":"n.a.","oeffnungszeiten_gebaeude_fr":"n.a.","oeffnungszeiten_gebaeude_mi":"n.a.","oeffnungszeiten_gebaeude_mo":"n.a.","oeffnungszeiten_gebaeude_sa":"n.a.","oeffnungszeiten_gebaeude_so":"n.a.","oeffnungszeiten_schalter_di":"n.a.","oeffnungszeiten_schalter_do":"n.a.","oeffnungszeiten_schalter_fr":"n.a.","oeffnungszeiten_schalter_mi":"n.a.","oeffnungszeiten_schalter_mo":"n.a.","oeffnungszeiten_schalter_sa":"n.a.","oeffnungszeiten_schalter_so":"n.a.","ort":"Zürich","plz":"8050","poi_id":"wc106","postadresse":null,"publish_internet":"1","standort":"Fritz-Heeb-Weg 13 / Beim Schulhaus im Birch, Neu-Oerlikon","strasse":"Fritz-Heeb-Weg","suchen":"Toilette, Toiletten","tel":"+41 44 412 43 65","tel2":null,"typ":"nicht rollstuhlgängig","www":"https://www.stadt-zuerich.ch/zueriwc","zahlungsmittel_internet":"NULL;NULL;","zahlungsmittel_schalter":"NULL;NULL;","zahlungsmittel_telefon":"NULL;NULL;","zvv_label":"Fritz-Heeb-Weg 13","zvv_link":"https://www.zvv.ch/de/fahrplan-und-informationen/fahrplan.html?toname=Zürich, Fritz-Heeb-Weg 13"},"type":"Feature"}
 ,{"geometry":{"coordinates":[8.527302,47.376015],"type":"Point"},"id":"poi_zueriwc_view.15","properties":{"adr_inter":null,"adresse":"Ankerstrasse 101","adrzus_int":null,"behindertenparkplatz":null,"bemerkung":null,"ccmail":null,"da":"Umwelt- und Gesundheitsschutz","datum":"202412161145","datum_cms":null,"dep":"Gesundheits- und Umweltdepartement (GUD)","editor":"ugzget","erforderlichedokumente":null,"fax":null,"gebuehren":"Gebührenfrei.","geometrie_gdo":null,"hausnummer":"101","hindernisfreiheit":"0__","infrastruktur":";Geöffnet 24h. Gebührenfrei","isbetriebsferien_gebaeude":"1","isbetriebsferien_schalter":"0","kategorie":"WC (nicht rollstuhlgängig)","kommentar":"2 Multifunktions-WCs.","kreis":4,"mail":"ugz-zueriwc@zuerich.ch","name":"Helvetiaplatz (nicht rollstuhlgängig)","namenzus":null,"objectid":15,"oeffnungsz":"24h","oeffnungszeiten_gebaeude_di":"n.a.","oeffnungszeiten_gebaeude_do":"n.a.","oeffnungszeiten_gebaeude_fr":"n.a.","oeffnungszeiten_gebaeude_mi":"n.a.","oeffnungszeiten_gebaeude_mo":"n.a.","oeffnungszeiten_gebaeude_sa":"n.a.","oeffnungszeiten_gebaeude_so":"n.a.","oeffnungszeiten_schalter_di":"n.a.","oeffnungszeiten_schalter_do":"n.a.","oeffnungszeiten_schalter_fr":"n.a.","oeffnungszeiten_schalter_mi":"n.a.","oeffnungszeiten_schalter_mo":"n.a.","oeffnungszeiten_schalter_sa":"n.a.","oeffnungszeiten_schalter_so":"n.a.","ort":"Zürich","plz":"8004","poi_id":"wc107","postadresse":null,"publish_internet":"1","standort":"Auf dem Helvetiaplatz, Ankerstrasse 101","strasse":"Ankerstrasse","suchen":"Toilette, Toiletten","tel":"+41 44 412 43 65","tel2":null,"typ":"nicht rollstuhlgängig","www":"https://www.stadt-zuerich.ch/zueriwc","zahlungsmittel_internet":"NULL;NULL;","zahlungsmittel_schalter":"NULL;NULL;","zahlungsmittel_telefon":"NULL;NULL;","zvv_label":"Ankerstrasse 101","zvv_link":"https://www.zvv.ch/de/fahrplan-und-informationen/fahrplan.html?toname=Zürich, Ankerstrasse 101"},"type":"Feature"}
 ,{"geometry":{"coordinates":[8.546756,47.365872],"type":"Point"},"id":"poi_zueriwc_view.16","properties":{"adr_inter":null,"adresse":"Theaterstrasse 9","adrzus_int":null,"behindertenparkplatz":null,"bemerkung":null,"ccmail":null,"da":"Umwelt- und Gesundheitsschutz","datum":"202412161145","datum_cms":null,"dep":"Gesundheits- und Umweltdepartement (GUD)","editor":"ugzfir","erforderlichedokumente":null,"fax":null,"gebuehren":"Gebührenfrei","geometrie_gdo":null,"hausnummer":"9","hindernisfreiheit":"0__","infrastruktur":";Geöffnet 24h. Gebührenfrei_Behinderten-WC (kein ZüriWC) im Parkhaus.","isbetriebsferien_gebaeude":"1","isbetriebsferien_schalter":"0","kategorie":"WC (nicht rollstuhlgängig)","kommentar":"1 Multifunktions-WC. Ein Behinderten-WC findet sich im UG im Parkhaus (Kein ZüriWC).","kreis":1,"mail":"ugz-zueriwc@zuerich.ch","name":"Opernhausparking (nicht rollstuhlgängig)","namenzus":null,"objectid":16,"oeffnungsz":"24h","oeffnungszeiten_gebaeude_di":"n.a.","oeffnungszeiten_gebaeude_do":"n.a.","oeffnungszeiten_gebaeude_fr":"n.a.","oeffnungszeiten_gebaeude_mi":"n.a.","oeffnungszeiten_gebaeude_mo":"n.a.","oeffnungszeiten_gebaeude_sa":"n.a.","oeffnungszeiten_gebaeude_so":"n.a.","oeffnungszeiten_schalter_di":"n.a.","oeffnungszeiten_schalter_do":"n.a.","oeffnungszeiten_schalter_fr":"n.a.","oeffnungszeiten_schalter_mi":"n.a.","oeffnungszeiten_schalter_mo":"n.a.","oeffnungszeiten_schalter_sa":"n.a.","oeffnungszeiten_schalter_so":"n.a.","ort":"Zürich","plz":"8001","poi_id":"wc1339","postadresse":null,"publish_internet":"1","standort":"Im neuen Pavillon-Restaurant auf dem Theaterplatz","strasse":"Theaterstrasse","suchen":"Toilette, Toiletten","tel":"+41 44 412 43 65","tel2":null,"typ":"nicht rollstuhlgängig","www":"https://www.stadt-zuerich.ch/zueriwc","zahlungsmittel_internet":"NULL;NULL;","zahlungsmittel_schalter":"NULL;NULL;","zahlungsmittel_telefon":"NULL;NULL;","zvv_label":"Theaterstrasse 9","zvv_link":"https://www.zvv.ch/de/fahrplan-und-informationen/fahrplan.html?toname=Zürich, Theaterstrasse 9"},"type":"Feature"}
 ,{"geometry":{"coordinates":[8.535602,47.36364],"type":"Point"},"id":"poi_zueriwc_view.17","properties":{"adr_inter":null,"adresse":"General-Guisan-Quai 37","adrzus_int":null,"behindertenparkplatz":null,"bemerkung":null,"ccmail":null,"da":"Umwelt- und Gesundheitsschutz","datum":"202412161145","datum_cms":null,"dep":"Gesundheits- und Umweltdepartement (GUD)","editor":"ugzget","erforderlichedokumente":null,"fax":null,"gebuehren":"Gebührenfrei.","geometrie_gdo":null,"hausnummer":"37","hindernisfreiheit":"0__","infrastruktur":";Geöffnet 24h. Gebührenfrei.","isbetriebsferien_gebaeude":"1","isbetriebsferien_schalter":"0","kategorie":"WC (nicht rollstuhlgängig)","kommentar":"2 Multifunktions-WCs. Bei schönem Wetter sehr stark frequentiert.","kreis":2,"mail":"ugz-zueriwc@zuerich.ch","name":"Arboretum (nicht rollstuhlgängig)","namenzus":null,"objectid":17,"oeffnungsz":"24h","oeffnungszeiten_gebaeude_di":"n.a.","oeffnungszeiten_gebaeude_do":"n.a.","oeffnungszeiten_gebaeude_fr":"n.a.","oeffnungszeiten_gebaeude_mi":"n.a.","oeffnungszeiten_gebaeude_mo":"n.a.","oeffnungszeiten_gebaeude_sa":"n.a.","oeffnungszeiten_gebaeude_so":"n.a.","oeffnungszeiten_schalter_di":"n.a.","oeffnungszeiten_schalter_do":"n.a.","oeffnungszeiten_schalter_fr":"n.a.","oeffnungszeiten_schalter_mi":"n.a.","oeffnungszeiten_schalter_mo":"n.a.","oeffnungszeiten_schalter_sa":"n.a.","oeffnungszeiten_schalter_so":"n.a.","ort":"Zürich","plz":"8002","poi_id":"wc100","postadresse":null,"publish_internet":"1","standort":"General-Guisan-Quai 37","strasse":"General-Guisan-Quai","suchen":"Toilette, Toiletten","tel":"+41 44 412 43 65","tel2":null,"typ":"nicht rollstuhlgängig","www":"https://www.stadt-zuerich.ch/zueriwc","zahlungsmittel_internet":"NULL;NULL;","zahlungsmittel_schalter":"NULL;NULL;","zahlungsmittel_telefon":"NULL;NULL;","zvv_label":"General-Guisan-Quai 37","zvv_link":"https://www.zvv.ch/de/fahrplan-und-informationen/fahrplan.html?toname=Zürich, General-Guisan-Quai 37"},"type":"Feature"}
 ,{"geometry":{"coordinates":[8.539588,47.338055],"type":"Point"},"id":"poi_zueriwc_view.18","properties":{"adr_inter":null,"adresse":"Seestrasse 495b","adrzus_int":null,"behindertenparkplatz":null,"bemerkung":null,"ccmail":null,"da":"Umwelt- und Gesundheitsschutz","datum":"202412161145","datum_cms":null,"dep":"Gesundheits- und Umweltdepartement (GUD)","editor":"ugzget","erforderlichedokumente":null,"fax":null,"gebuehren":"Gebührenfrei","geometrie_gdo":null,"hausnummer":"495b","hindernisfreiheit":"0__","infrastruktur":";Geöffnet 24h. Gebührenfrei","isbetriebsferien_gebaeude":"1","isbetriebsferien_schalter":"0","kategorie":"WC (nicht rollstuhlgängig)","kommentar":"2 Multifunktions-WCs. Für RollstuhlfahrerInnen steht das Behinderten-WC im Restaurant Seerose ohne Konsumationszwang zur Verfügung.","kreis":2,"mail":"ugz-zueriwc@zuerich.ch","name":"Hafen Wollishofen (nicht rollstuhlgängig)","namenzus":null,"objectid":18,"oeffnungsz":"24h","oeffnungszeiten_gebaeude_di":"n.a.","oeffnungszeiten_gebaeude_do":"n.a.","oeffnungszeiten_gebaeude_fr":"n.a.","oeffnungszeiten_gebaeude_mi":"n.a.","oeffnungszeiten_gebaeude_mo":"n.a.","oeffnungszeiten_gebaeude_sa":"n.a.","oeffnungszeiten_gebaeude_so":"n.a.","oeffnungszeiten_schalter_di":"n.a.","oeffnungszeiten_schalter_do":"n.a.","oeffnungszeiten_schalter_fr":"n.a.","oeffnungszeiten_schalter_mi":"n.a.","oeffnungszeiten_schalter_mo":"n.a.","oeffnungszeiten_schalter_sa":"n.a.","oeffnungszeiten_schalter_so":"n.a.","ort":"Zürich","plz":"8002","poi_id":"wc018","postadresse":null,"publish_internet":"1","standort":"Seestr. 495b, bei der Zufahrt zum Rest. Seerose","strasse":"Seestrasse","suchen":"Toilette, Toiletten","tel":"+41 44 412 43 65","tel2":null,"typ":"nicht rollstuhlgängig","www":"https://www.stadt-zuerich.ch/zueriwc","zahlungsmittel_internet":"NULL;NULL;","zahlungsmittel_schalter":"NULL;NULL;","zahlungsmittel_telefon":"NULL;NULL;","zvv_label":"Seestrasse 495b","zvv_link":"https://www.zvv.ch/de/fahrplan-und-informationen/fahrplan.html?toname=Zürich, Seestrasse 495b"},"type":"Feature"}
 ,{"geometry":{"coordinates":[8.519311,47.414247],"type":"Point"},"id":"poi_zueriwc_view.19","properties":{"adr_inter":null,"adresse":"Wehntalerstrasse 384","adrzus_int":null,"behindertenparkplatz":null,"bemerkung":null,"ccmail":null,"da":"Umwelt- und Gesundheitsschutz","datum":"202412161145","datum_cms":null,"dep":"Gesundheits- und Umweltdepartement (GUD)","editor":"ugzget","erforderlichedokumente":null,"fax":null,"gebuehren":"Gebührenfrei","geometrie_gdo":null,"hausnummer":"384","hindernisfreiheit":"0__","infrastruktur":";Geöffnet 24h. Gebührenfrei","isbetriebsferien_gebaeude":"1","isbetriebsferien_schalter":"0","kategorie":"WC (nicht rollstuhlgängig)","kommentar":"2 Multifunktions-WCs.","kreis":11,"mail":"ugz-zueriwc@zuerich.ch","name":"Glaubtenstrasse (nicht rollstuhlgängig)","namenzus":null,"objectid":19,"oeffnungsz":"24 h","oeffnungszeiten_gebaeude_di":"n.a.","oeffnungszeiten_gebaeude_do":"n.a.","oeffnungszeiten_gebaeude_fr":"n.a.","oeffnungszeiten_gebaeude_mi":"n.a.","oeffnungszeiten_gebaeude_mo":"n.a.","oeffnungszeiten_gebaeude_sa":"n.a.","oeffnungszeiten_gebaeude_so":"n.a.","oeffnungszeiten_schalter_di":"n.a.","oeffnungszeiten_schalter_do":"n.a.","oeffnungszeiten_schalter_fr":"n.a.","oeffnungszeiten_schalter_mi":"n.a.","oeffnungszeiten_schalter_mo":"n.a.","oeffnungszeiten_schalter_sa":"n.a.","oeffnungszeiten_schalter_so":"n.a.","ort":"Zürich","plz":"8046","poi_id":"wc087","postadresse":null,"publish_internet":"1","standort":"Ecke Binzmühlestrasse / Wehntalerstrasse 384","strasse":"Wehntalerstrasse","suchen":"Toilette, Toiletten","tel":"+41 44 412 43 65","tel2":null,"typ":"nicht rollstuhlgängig","www":"https://www.stadt-zuerich.ch/zueriwc","zahlungsmittel_internet":"NULL;NULL;","zahlungsmittel_schalter":"NULL;NULL;","zahlungsmittel_telefon":"NULL;NULL;","zvv_label":"Wehntalerstrasse 384","zvv_link":"https://www.zvv.ch/de/fahrplan-und-informationen/fahrplan.html?toname=Zürich, Wehntalerstrasse 384"},"type":"Feature"}
 ,{"geometry":{"coordinates":[8.522288,47.368434],"type":"Point"},"id":"poi_zueriwc_view.20","properties":{"adr_inter":null,"adresse":"Zurlindenstrasse 22","adrzus_int":null,"behindertenparkplatz":"0","bemerkung":null,"ccmail":null,"da":"Umwelt- und Gesundheitsschutz","datum":"202412161145","datum_cms":null,"dep":"Gesundheits- und Umweltdepartement (GUD)","editor":"ugzfir","erforderlichedokumente":null,"fax":null,"gebuehren":"Gebührenfrei","geometrie_gdo":null,"hausnummer":"22","hindernisfreiheit":"0__","infrastruktur":";Geöffnet 24h. Gebührenfrei","isbetriebsferien_gebaeude":"1","isbetriebsferien_schalter":"0","kategorie":"WC (nicht rollstuhlgängig)","kommentar":"1 Multifunktions-WC. ","kreis":3,"mail":"ugz-zueriwc@zuerich.ch","name":"Aegerten (nicht rollstuhlgängig)","namenzus":null,"objectid":20,"oeffnungsz":"24 h","oeffnungszeiten_gebaeude_di":"n.a.","oeffnungszeiten_gebaeude_do":"n.a.","oeffnungszeiten_gebaeude_fr":"n.a.","oeffnungszeiten_gebaeude_mi":"n.a.","oeffnungszeiten_gebaeude_mo":"n.a.","oeffnungszeiten_gebaeude_sa":"n.a.","oeffnungszeiten_gebaeude_so":"n.a.","oeffnungszeiten_schalter_di":"n.a.","oeffnungszeiten_schalter_do":"n.a.","oeffnungszeiten_schalter_fr":"n.a.","oeffnungszeiten_schalter_mi":"n.a.","oeffnungszeiten_schalter_mo":"n.a.","oeffnungszeiten_schalter_sa":"n.a.","oeffnungszeiten_schalter_so":"n.a.","ort":"Zürich","plz":"8003","poi_id":"wc024","postadresse":null,"publish_internet":"0","standort":"Zurlindenstr 22, Spielplatz beim Schulhaus","strasse":"Zurlindenstrasse","suchen":"Toilette, Toiletten","tel":"+41 44 412 43 65","tel2":null,"typ":"nicht rollstuhlgängig","www":"https://www.stadt-zuerich.ch/zueriwc","zahlungsmittel_internet":"NULL;NULL;","zahlungsmittel_schalter":"NULL;NULL;","zahlungsmittel_telefon":"NULL;NULL;","zvv_label":"Zurlindenstrasse 22","zvv_link":"https://www.zvv.ch/de/fahrplan-und-informationen/fahrplan.html?toname=Zürich, Zurlindenstrasse 22"},"type":"Feature"}
 ,{"geometry":{"coordinates":[8.482085,47.397921],"type":"Point"},"id":"poi_zueriwc_view.21","properties":{"adr_inter":null,"adresse":"Bändlistrasse 90","adrzus_int":null,"behindertenparkplatz":null,"bemerkung":null,"ccmail":null,"da":"Umwelt- und Gesundheitsschutz","datum":"202412161145","datum_cms":null,"dep":"Gesundheits- und Umweltdepartement (GUD)","editor":"ugzfir","erforderlichedokumente":null,"fax":null,"gebuehren":"Gebührenfrei","geometrie_gdo":null,"hausnummer":"90","hindernisfreiheit":"0__","infrastruktur":";Geöffnet 24h. Gebührenfrei","isbetriebsferien_gebaeude":"1","isbetriebsferien_schalter":"0","kategorie":"WC (nicht rollstuhlgängig)","kommentar":"Multifunktions-WC. ","kreis":9,"mail":"ugz-zueriwc@zuerich.ch","name":"Werdhölzli (nicht rollstuhlgängig)","namenzus":null,"objectid":21,"oeffnungsz":"24 h","oeffnungszeiten_gebaeude_di":"n.a.","oeffnungszeiten_gebaeude_do":"n.a.","oeffnungszeiten_gebaeude_fr":"n.a.","oeffnungszeiten_gebaeude_mi":"n.a.","oeffnungszeiten_gebaeude_mo":"n.a.","oeffnungszeiten_gebaeude_sa":"n.a.","oeffnungszeiten_gebaeude_so":"n.a.","oeffnungszeiten_schalter_di":"n.a.","oeffnungszeiten_schalter_do":"n.a.","oeffnungszeiten_schalter_fr":"n.a.","oeffnungszeiten_schalter_mi":"n.a.","oeffnungszeiten_schalter_mo":"n.a.","oeffnungszeiten_schalter_sa":"n.a.","oeffnungszeiten_schalter_so":"n.a.","ort":"Zürich","plz":"8064","poi_id":"wc078","postadresse":null,"publish_internet":"0","standort":"Bändlistrasse 90, Endstation Tram 4","strasse":"Bändlistrasse","suchen":"Toilette, Toiletten","tel":"+41 44 412 43 65","tel2":null,"typ":"nicht rollstuhlgängig","www":"https://www.stadt-zuerich.ch/zueriwc","zahlungsmittel_internet":"NULL;NULL;","zahlungsmittel_schalter":"NULL;NULL;","zahlungsmittel_telefon":"NULL;NULL;","zvv_label":"Bändlistrasse 90","zvv_link":"https://www.zvv.ch/de/fahrplan-und-informationen/fahrplan.html?toname=Zürich, Bändlistrasse 90"},"type":"Feature"}
 ,{"geometry":{"coordinates":[8.534558,47.35022],"type":"Point"},"id":"poi_zueriwc_view.22","properties":{"adr_inter":null,"adresse":"Mythenquai 309","adrzus_int":null,"behindertenparkplatz":null,"bemerkung":null,"ccmail":null,"da":"Umwelt- und Gesundheitsschutz","datum":"202412161145","datum_cms":null,"dep":"Gesundheits- und Umweltdepartement (GUD)","editor":"ugzfir","erforderlichedokumente":null,"fax":null,"gebuehren":"Gebührenfrei","geometrie_gdo":null,"hausnummer":"309","hindernisfreiheit":"0__","infrastruktur":";Rollstuhlgängiges-WC Fr. 1.--, Eurokey oder Kreditkartenzahlung möglich, Multifunktions-WC kostenlos benutzbar","isbetriebsferien_gebaeude":"1","isbetriebsferien_schalter":"0","kategorie":"WC (nicht rollstuhlgängig)","kommentar":"4 Multifunktions-WCs. ","kreis":2,"mail":"ugz-zueriwc@zuerich.ch","name":"Landiwiese (nicht rollstuhlgängig)","namenzus":null,"objectid":22,"oeffnungsz":"24h","oeffnungszeiten_gebaeude_di":"n.a.","oeffnungszeiten_gebaeude_do":"n.a.","oeffnungszeiten_gebaeude_fr":"n.a.","oeffnungszeiten_gebaeude_mi":"n.a.","oeffnungszeiten_gebaeude_mo":"n.a.","oeffnungszeiten_gebaeude_sa":"n.a.","oeffnungszeiten_gebaeude_so":"n.a.","oeffnungszeiten_schalter_di":"n.a.","oeffnungszeiten_schalter_do":"n.a.","oeffnungszeiten_schalter_fr":"n.a.","oeffnungszeiten_schalter_mi":"n.a.","oeffnungszeiten_schalter_mo":"n.a.","oeffnungszeiten_schalter_sa":"n.a.","oeffnungszeiten_schalter_so":"n.a.","ort":"Zürich","plz":"8002","poi_id":"wc020","postadresse":null,"publish_internet":"0","standort":"Mythenquai 309 / unter der Fussgängerbrücke","strasse":"Mythenquai","suchen":"Toilette, Toiletten","tel":"+41 44 412 43 65","tel2":null,"typ":"nicht rollstuhlgängig","www":"https://www.stadt-zuerich.ch/zueriwc","zahlungsmittel_internet":"NULL;NULL;","zahlungsmittel_schalter":"NULL;NULL;","zahlungsmittel_telefon":"NULL;NULL;","zvv_label":"Mythenquai 309","zvv_link":"https://www.zvv.ch/de/fahrplan-und-informationen/fahrplan.html?toname=Zürich, Mythenquai 309"},"type":"Feature"}
 ,{"geometry":{"coordinates":[8.537404,47.381046],"type":"Point"},"id":"poi_zueriwc_view.23","properties":{"adr_inter":null,"adresse":"Carparkplatz, Ausstellungsstrasse bei Nr. 15","adrzus_int":null,"behindertenparkplatz":null,"bemerkung":null,"ccmail":null,"da":"Umwelt- und Gesundheitsschutz","datum":"202412161145","datum_cms":null,"dep":"Gesundheits- und Umweltdepartement (GUD)","editor":"ugzget","erforderlichedokumente":null,"fax":null,"gebuehren":"Fr. 1.--.","geometrie_gdo":null,"hausnummer":null,"hindernisfreiheit":"0__","infrastruktur":";WC-Automat. Gebühr Fr. 1.--","isbetriebsferien_gebaeude":"1","isbetriebsferien_schalter":"0","kategorie":"WC (nicht rollstuhlgängig)","kommentar":"Zwei WC-Automaten für Damen- und Herren.","kreis":5,"mail":"ugz-zueriwc@zuerich.ch","name":"Carparkplatz (nicht rollstuhlgängig)","namenzus":null,"objectid":23,"oeffnungsz":"24 h","oeffnungszeiten_gebaeude_di":"n.a.","oeffnungszeiten_gebaeude_do":"n.a.","oeffnungszeiten_gebaeude_fr":"n.a.","oeffnungszeiten_gebaeude_mi":"n.a.","oeffnungszeiten_gebaeude_mo":"n.a.","oeffnungszeiten_gebaeude_sa":"n.a.","oeffnungszeiten_gebaeude_so":"n.a.","oeffnungszeiten_schalter_di":"n.a.","oeffnungszeiten_schalter_do":"n.a.","oeffnungszeiten_schalter_fr":"n.a.","oeffnungszeiten_schalter_mi":"n.a.","oeffnungszeiten_schalter_mo":"n.a.","oeffnungszeiten_schalter_sa":"n.a.","oeffnungszeiten_schalter_so":"n.a.","ort":"Zürich","plz":"8005","poi_id":"wc047","postadresse":null,"publish_internet":"0","standort":"Ausstellungsstrasse 15, bei der Einfahrt zum Busbahnhof.","strasse":null,"suchen":"Toilette, Toiletten","tel":"+41 44 412 43 65","tel2":null,"typ":"nicht rollstuhlgängig","www":"https://www.stadt-zuerich.ch/zueriwc","zahlungsmittel_internet":"NULL;NULL;","zahlungsmittel_schalter":"NULL;NULL;","zahlungsmittel_telefon":"NULL;NULL;","zvv_label":"Carparkplatz, Ausstellungsstrasse bei Nr. 15","zvv_link":"https://www.zvv.ch/de/fahrplan-und-informationen/fahrplan.html?toname=Zürich, Ausstellungsstrasse 12"},"type":"Feature"}
 ,{"geometry":{"coordinates":[8.525186,47.375513],"type":"Point"},"id":"poi_zueriwc_view.24","properties":{"adr_inter":null,"adresse":"Langstrasse 30","adrzus_int":null,"behindertenparkplatz":null,"bemerkung":null,"ccmail":null,"da":"Umwelt- und Gesundheitsschutz","datum":"202412161145","datum_cms":null,"dep":"Gesundheits- und Umweltdepartement (GUD)","editor":"ugzget","erforderlichedokumente":null,"fax":null,"gebuehren":"Gebührenfrei","geometrie_gdo":null,"hausnummer":"30","hindernisfreiheit":"0__","infrastruktur":";Pissoir für Männer. Gebührenfrei","isbetriebsferien_gebaeude":"1","isbetriebsferien_schalter":"0","kategorie":"WC (nicht rollstuhlgängig)","kommentar":"Zurzeit geschlossen.","kreis":4,"mail":"ugz-zueriwc@zuerich.ch","name":"Obere Langstrasse (Pissoir)","namenzus":null,"objectid":24,"oeffnungsz":"24 h","oeffnungszeiten_gebaeude_di":"n.a.","oeffnungszeiten_gebaeude_do":"n.a.","oeffnungszeiten_gebaeude_fr":"n.a.","oeffnungszeiten_gebaeude_mi":"n.a.","oeffnungszeiten_gebaeude_mo":"n.a.","oeffnungszeiten_gebaeude_sa":"n.a.","oeffnungszeiten_gebaeude_so":"n.a.","oeffnungszeiten_schalter_di":"n.a.","oeffnungszeiten_schalter_do":"n.a.","oeffnungszeiten_schalter_fr":"n.a.","oeffnungszeiten_schalter_mi":"n.a.","oeffnungszeiten_schalter_mo":"n.a.","oeffnungszeiten_schalter_sa":"n.a.","oeffnungszeiten_schalter_so":"n.a.","ort":"Zürich","plz":"8004","poi_id":"wc042","postadresse":null,"publish_internet":"0","standort":"Langstrasse 30 / Beim Kanzleischulhaus","strasse":"Langstrasse","suchen":"Toilette, Toiletten","tel":"+41 44 412 43 65","tel2":null,"typ":"Pissoir","www":"https://www.stadt-zuerich.ch/zueriwc","zahlungsmittel_internet":"NULL;NULL;","zahlungsmittel_schalter":"NULL;NULL;","zahlungsmittel_telefon":"NULL;NULL;","zvv_label":"Langstrasse 30","zvv_link":"https://www.zvv.ch/de/fahrplan-und-informationen/fahrplan.html?toname=Zürich, Langstrasse 30"},"type":"Feature"}
 ,{"geometry":{"coordinates":[8.538918,47.369716],"type":"Point"},"id":"poi_zueriwc_view.25","properties":{"adr_inter":null,"adresse":"Paradeplatz 11","adrzus_int":null,"behindertenparkplatz":null,"bemerkung":null,"ccmail":null,"da":"Umwelt- und Gesundheitsschutz","datum":"202412161145","datum_cms":null,"dep":"Gesundheits- und Umweltdepartement (GUD)","editor":"ugzfir","erforderlichedokumente":null,"fax":null,"gebuehren":"Gebühr Fr. 1.--..","geometrie_gdo":null,"hausnummer":"11","hindernisfreiheit":"0__","infrastruktur":";NULL","isbetriebsferien_gebaeude":"1","isbetriebsferien_schalter":"0","kategorie":"WC (nicht rollstuhlgängig)","kommentar":"Bediente Anlage: Damen- und Herren WC, Wickeltisch. Ein Behinderten-WC (mit Eurokey-Schliessung) findet sich bei der Credit Suisse an der Bärengasse (kein ZüriWC).","kreis":1,"mail":"ugz-zueriwc@zuerich.ch","name":"Paradeplatz (nicht rollstuhlgängig)","namenzus":null,"objectid":25,"oeffnungsz":"Mon.-Sam. 06.30 - 20.45 Uhr, Son. 09:30 - 17:45 Uhr","oeffnungszeiten_gebaeude_di":"n.a.","oeffnungszeiten_gebaeude_do":"n.a.","oeffnungszeiten_gebaeude_fr":"n.a.","oeffnungszeiten_gebaeude_mi":"n.a.","oeffnungszeiten_gebaeude_mo":"n.a.","oeffnungszeiten_gebaeude_sa":"n.a.","oeffnungszeiten_gebaeude_so":"n.a.","oeffnungszeiten_schalter_di":"n.a.","oeffnungszeiten_schalter_do":"n.a.","oeffnungszeiten_schalter_fr":"n.a.","oeffnungszeiten_schalter_mi":"n.a.","oeffnungszeiten_schalter_mo":"n.a.","oeffnungszeiten_schalter_sa":"n.a.","oeffnungszeiten_schalter_so":"n.a.","ort":"Zürich","plz":"8001","poi_id":"wc010","postadresse":null,"publish_internet":"1","standort":"Paradeplatz 11 / Im Tramwartehaus die Treppe runter","strasse":"Paradeplatz","suchen":"Toilette, Toiletten","tel":"+41 44 412 43 65","tel2":null,"typ":"nicht rollstuhlgängig","www":"https://www.stadt-zuerich.ch/zueriwc","zahlungsmittel_internet":"NULL;NULL;","zahlungsmittel_schalter":"NULL;NULL;","zahlungsmittel_telefon":"NULL;NULL;","zvv_label":"Paradeplatz 11","zvv_link":"https://www.zvv.ch/de/fahrplan-und-informationen/fahrplan.html?toname=Zürich, Paradeplatz 11"},"type":"Feature"}
 ]
}