{"type": "FeatureCollection",
 "bbox": [ 8.507465, 47.376896, 8.553174, 47.395302],
 "features": [
  {"geometry":{"coordinates":[8.552874,47.380529],"type":"Point"},"id":"poi_zueriwc_mobil_rs_view.1","properties":{"adr_inter":null,"adresse":"Mobiles WC (Hindernisfrei) Siriuswiese","adrzus_int":null,"behindertenparkplatz":null,"bemerkung":"Die mobile hindernisfreie WC-Anlage ist jeweils von Anfang April bis Ende Oktober offen.","ccmail":null,"da":"Umwelt- und Gesundheitsschutz","datum":"202412161145","datum_cms":null,"dep":"Gesundheits- und Umweltdepartement (GUD)","editor":"ugzget","erforderlichedokumente":null,"fax":null,"geometrie_gdo":null,"hausnummer":null,"hindernisfreiheit":"0__","infrastruktur":";Komposttoilette hindernisfrei","isbetriebsferien_gebaeude":"1","isbetriebsferien_schalter":"0","kategorie":"Mobile Toiletten (rollstuhlgängig)","mail":"ugz-zueriwc@zuerich.ch","name":"Mobiles WC Siriuswiese","namenzus":null,"objectid":1,"oeffnungszeiten_gebaeude_di":"n.a.","oeffnungszeiten_gebaeude_do":"n.a.","oeffnungszeiten_gebaeude_fr":"n.a.","oeffnungszeiten_gebaeude_mi":"n.a.","oeffnungszeiten_gebaeude_mo":"n.a.","oeffnungszeiten_gebaeude_sa":"n.a.","oeffnungszeiten_gebaeude_so":"n.a.","oeffnungszeiten_schalter_di":"n.a.","oeffnungszeiten_schalter_do":"n.a.","oeffnungszeiten_schalter_fr":"n.a.","oeffnungszeiten_schalter_mi":"n.a.","oeffnungszeiten_schalter_mo":"n.a.","oeffnungszeiten_schalter_sa":"n.a.","oeffnungszeiten_schalter_so":"n.a.","ort":"Zürich","plz":"8044","poi_id":"wcrm7349","postadresse":null,"publish_internet":"1","strasse":null,"suchen":"Toilette, Toiletten","tel":"+41 44 412 43 65","tel2":null,"www":"https://www.stadt-zuerich.ch/zueriwc","zahlungsmittel_internet":"NULL;NULL;","zahlungsmittel_schalter":"NULL;NULL;","zahlungsmittel_telefon":"NULL;NULL;","zvv_label":"Mobiles WC (Hindernisfrei) Siriuswiese","zvv_link":"https://www.zvv.ch/de/fahrplan-und-informationen/fahrplan.html?toname=Zürich, Siriusstrasse 6"},"type":"Feature"}
 ,{"geometry":{"coordinates":[8.507826,47.395302],"type":"Point"},"id":"poi_zueriwc_mobil_rs_view.2","properties":{"adr_inter":null,"adresse":"Mobiles WC Park am Wasser","adrzus_int":null,"behindertenparkplatz":null,"bemerkung":"Die mobile barrierefreie WC-Anlage ist jeweils von Anfang Juli bis Ende Oktober offen. ","ccmail":null,"da":"Umwelt- und Gesundheitsschutz","datum":"202412161145","datum_cms":null,"dep":"Gesundheits- und Umweltdepartement (GUD)","editor":"ugzget","erforderlichedokumente":null,"fax":null,"geometrie_gdo":null,"hausnummer":null,"hindernisfreiheit":"0__","infrastruktur":"Behinderten-WC;Komposttoilette Park am Wasser (behindertengerecht)","isbetriebsferien_gebaeude":"1","isbetriebsferien_schalter":"0","kategorie":"Mobile Toiletten (rollstuhlgängig)","mail":"ugz-zueriwc@zuerich.ch","name":"Mobiles WC Park am Wasser","namenzus":null,"objectid":2,"oeffnungszeiten_gebaeude_di":"n.a.","oeffnungszeiten_gebaeude_do":"n.a.","oeffnungszeiten_gebaeude_fr":"n.a.","oeffnungszeiten_gebaeude_mi":"n.a.","oeffnungszeiten_gebaeude_mo":"n.a.","oeffnungszeiten_gebaeude_sa":"n.a.","oeffnungszeiten_gebaeude_so":"n.a.","oeffnungszeiten_schalter_di":"n.a.","oeffnungszeiten_schalter_do":"n.a.","oeffnungszeiten_schalter_fr":"n.a.","oeffnungszeiten_schalter_mi":"n.a.","oeffnungszeiten_schalter_mo":"n.a.","oeffnungszeiten_schalter_sa":"n.a.","oeffnungszeiten_schalter_so":"n.a.","ort":"Zürich","plz":"8049","poi_id":"wcrm11629","postadresse":null,"publish_internet":"1","strasse":null,"suchen":"Toilette, Toiletten","tel":"+41 44 412 43 65","tel2":null,"www":"https://www.stadt-zuerich.ch/zueriwc","zahlungsmittel_internet":"NULL;NULL;","zahlungsmittel_schalter":"NULL;NULL;","zahlungsmittel_telefon":"NULL;NULL;","zvv_label":"Mobiles WC Park am Wasser","zvv_link":"https://www.zvv.ch/de/fahrplan-und-informationen/fahrplan.html?toname=Zürich, Am Wasser 50"},"type":"Feature"}
 ,{"geometry":{"coordinates":[8.524108,47.377169],"type":"Point"},"id":"poi_zueriwc_mobil_rs_view.3","properties":{"adr_inter":null,"adresse":"Mobiles WC Bäckeranlage","adrzus_int":null,"behindertenparkplatz":null,"bemerkung":"Die mobile WC-Anlage ist jeweils von Anfang April bis Ende Oktober offen.","ccmail":null,"da":"Umwelt- und Gesundheitsschutz","datum":"202412161145","datum_cms":null,"dep":"Gesundheits- und Umweltdepartement (GUD)","editor":"ugzget","erforderlichedokumente":null,"fax":null,"geometrie_gdo":null,"hausnummer":null,"hindernisfreiheit":"0__","infrastruktur":";Komposttoilette Bäckeranalge, <br>2 Kompotoi, April-Oktober","isbetriebsferien_gebaeude":"1","isbetriebsferien_schalter":"0","kategorie":"Mobile Toiletten (rollstuhlgängig)","mail":"ugz-zueriwc@zuerich.ch","name":"Mobiles WC Bäckeranlage","namenzus":null,"objectid":3,"oeffnungszeiten_gebaeude_di":"n.a.","oeffnungszeiten_gebaeude_do":"n.a.","oeffnungszeiten_gebaeude_fr":"n.a.","oeffnungszeiten_gebaeude_mi":"n.a.","oeffnungszeiten_gebaeude_mo":"n.a.","oeffnungszeiten_gebaeude_sa":"n.a.","oeffnungszeiten_gebaeude_so":"n.a.","oeffnungszeiten_schalter_di":"n.a.","oeffnungszeiten_schalter_do":"n.a.","oeffnungszeiten_schalter_fr":"n.a.","oeffnungszeiten_schalter_mi":"n.a.","oeffnungszeiten_schalter_mo":"n.a.","oeffnungszeiten_schalter_sa":"n.a.","oeffnungszeiten_schalter_so":"n.a.","ort":"Zürich","plz":"8004","poi_id":"wcm11581","postadresse":null,"publish_internet":"1","strasse":null,"suchen":"Toilette, Toiletten","tel":"+41 44 412 43 65","tel2":null,"www":"https://www.stadt-zuerich.ch/zueriwc","zahlungsmittel_internet":"NULL;NULL;","zahlungsmittel_schalter":"NULL;NULL;","zahlungsmittel_telefon":"NULL;NULL;","zvv_label":"Mobiles WC Bäckeranlage","zvv_link":"https://www.zvv.ch/de/fahrplan-und-informationen/fahrplan.html?toname=Zürich, Stauffacherstrasse 119"},"type":"Feature"}
 ]
}