{"type": "FeatureCollection",
 "bbox": [ 8.487305, 47.346017, 8.56804, 47.418243],
 "features": [
  {"geometry":{"coordinates":[8.525213,47.375512],"type":"Point"},"id":"poi_zueriwc_mobil_view.1","properties":{"adr_inter":null,"adresse":"Mobiles WC Kanzleiareal","adrzus_int":null,"behindertenparkplatz":null,"bemerkung":"Die mobile WC-Anlagen sind ganzjährig offen.","ccmail":null,"da":"Umwelt- und Gesundheitsschutz","datum":"202412161145","datum_cms":null,"dep":"Gesundheits- und Umweltdepartement (GUD)","editor":"ugzget","erforderlichedokumente":null,"fax":null,"geometrie_gdo":null,"hausnummer":null,"hindernisfreiheit":"0__","infrastruktur":";Kompost-Toilette","isbetriebsferien_gebaeude":"1","isbetriebsferien_schalter":"0","kategorie":"Mobile Toiletten (nicht rollstuhlgängig)","mail":"ugz-zueriwc@zuerich.ch","name":"Mobiles WC Kanzleiareal","namenzus":null,"objectid":1,"oeffnungszeiten_gebaeude_di":"n.a.","oeffnungszeiten_gebaeude_do":"n.a.","oeffnungszeiten_gebaeude_fr":"n.a.","oeffnungszeiten_gebaeude_mi":"n.a.","oeffnungszeiten_gebaeude_mo":"n.a.","oeffnungszeiten_gebaeude_sa":"n.a.","oeffnungszeiten_gebaeude_so":"n.a.","oeffnungszeiten_schalter_di":"n.a.","oeffnungszeiten_schalter_do":"n.a.","oeffnungszeiten_schalter_fr":"n.a.","oeffnungszeiten_schalter_mi":"n.a.","oeffnungszeiten_schalter_mo":"n.a.","oeffnungszeiten_schalter_sa":"n.a.","oeffnungszeiten_schalter_so":"n.a.","ort":"Zürich","plz":"8004","poi_id":"wcm7346","postadresse":null,"publish_internet":"1","strasse":null,"suchen":"Toilette, Toiletten","tel":"+41 44 412 43 65","tel2":null,"www":"https://www.stadt-zuerich.ch/zueriwc","zahlungsmittel_internet":"NULL;NULL;","zahlungsmittel_schalter":"NULL;NULL;","zahlungsmittel_telefon":"NULL;NULL;","zvv_label":"Mobiles WC Kanzleiareal","zvv_link":"https://www.zvv.ch/de/fahrplan-und-informationen/fahrplan.html?toname=Zürich, Langstrasse 30"},"type":"Feature"}
 ,{"geometry":{"coordinates":[8.527112,47.378382],"type":"Point"},"id":"poi_zueriwc_mobil_view.2","properties":{"adr_inter":null,"adresse":"Mobiles Pissoir Piazza Cella","adrzus_int":null,"behindertenparkplatz":null,"bemerkung":null,"ccmail":null,"da":"Umwelt- und Gesundheitsschutz","datum":"202412161145","datum_cms":null,"dep":"Gesundheits- und Umweltdepartement (GUD)","editor":"ugzget","erforderlichedokumente":null,"fax":null,"geometrie_gdo":null,"hausnummer":null,"hindernisfreiheit":"0__","infrastruktur":";Mobiles Pissoir","isbetriebsferien_gebaeude":"1","isbetriebsferien_schalter":"0","kategorie":"Mobile Toiletten (nicht rollstuhlgängig)","mail":"ugz-zueriwc@zuerich.ch","name":"Mobiles Pissoir Piazza Cella","namenzus":null,"objectid":2,"oeffnungszeiten_gebaeude_di":"n.a.","oeffnungszeiten_gebaeude_do":"n.a.","oeffnungszeiten_gebaeude_fr":"n.a.","oeffnungszeiten_gebaeude_mi":"n.a.","oeffnungszeiten_gebaeude_mo":"n.a.","oeffnungszeiten_gebaeude_sa":"n.a.","oeffnungszeiten_gebaeude_so":"n.a.","oeffnungszeiten_schalter_di":"n.a.","oeffnungszeiten_schalter_do":"n.a.","oeffnungszeiten_schalter_fr":"n.a.","oeffnungszeiten_schalter_mi":"n.a.","oeffnungszeiten_schalter_mo":"n.a.","oeffnungszeiten_schalter_sa":"n.a.","oeffnungszeiten_schalter_so":"n.a.","ort":"Zürich","plz":"8004","poi_id":"wcm7348","postadresse":null,"publish_internet":"1","strasse":null,"suchen":"Toilette, Toiletten","tel":"+41 44 412 43 65","tel2":null,"www":"https://www.stadt-zuerich.ch/zueriwc","zahlungsmittel_internet":"NULL;NULL;","zahlungsmittel_schalter":"NULL;NULL;","zahlungsmittel_telefon":"NULL;NULL;","zvv_label":"Mobiles Pissoir Piazza Cella","zvv_link":"https://www.zvv.ch/de/fahrplan-und-informationen/fahrplan.html?toname=Zürich, Dienerstrasse 40"},"type":"Feature"}
 ,{"geometry":{"coordinates":[8.519903,47.417956],"type":"Point"},"id":"poi_zueriwc_mobil_view.3","properties":{"adr_inter":null,"adresse":"Mobiles WC Hürstwiese","adrzus_int":null,"behindertenparkplatz":null,"bemerkung":"Die mobile WC-Anlage ist jeweils von Anfang April bis Ende Oktober offen.","ccmail":null,"da":"Umwelt- und Gesundheitsschutz","datum":"202412161145","datum_cms":null,"dep":"Gesundheits- und Umweltdepartement (GUD)","editor":"ugzfir","erforderlichedokumente":null,"fax":null,"geometrie_gdo":null,"hausnummer":null,"hindernisfreiheit":"0__","infrastruktur":";Komposttoilette Hürstwiese","isbetriebsferien_gebaeude":"1","isbetriebsferien_schalter":"0","kategorie":"Mobile Toiletten (nicht rollstuhlgängig)","mail":"ugz-zueriwc@zuerich.ch","name":"Mobiles WC Hürstholz","namenzus":null,"objectid":3,"oeffnungszeiten_gebaeude_di":"n.a.","oeffnungszeiten_gebaeude_do":"n.a.","oeffnungszeiten_gebaeude_fr":"n.a.","oeffnungszeiten_gebaeude_mi":"n.a.","oeffnungszeiten_gebaeude_mo":"n.a.","oeffnungszeiten_gebaeude_sa":"n.a.","oeffnungszeiten_gebaeude_so":"n.a.","oeffnungszeiten_schalter_di":"n.a.","oeffnungszeiten_schalter_do":"n.a.","oeffnungszeiten_schalter_fr":"n.a.","oeffnungszeiten_schalter_mi":"n.a.","oeffnungszeiten_schalter_mo":"n.a.","oeffnungszeiten_schalter_sa":"n.a.","oeffnungszeiten_schalter_so":"n.a.","ort":"Zürich","plz":"8046","poi_id":"wcm7353","postadresse":null,"publish_internet":"0","strasse":null,"suchen":"Toilette, Toiletten","tel":"+41 44 412 43 65","tel2":null,"www":"https://www.stadt-zuerich.ch/zueriwc","zahlungsmittel_internet":"NULL;NULL;","zahlungsmittel_schalter":"NULL;NULL;","zahlungsmittel_telefon":"NULL;NULL;","zvv_label":"Mobiles WC Hürstwiese","zvv_link":"https://www.zvv.ch/de/fahrplan-und-informationen/fahrplan.html?toname=Zürich, Seebacherstrasse 430"},"type":"Feature"}
 ,{"geometry":{"coordinates":[8.487582,47.360857],"type":"Point"},"id":"poi_zueriwc_mobil_view.4","properties":{"adr_inter":null,"adresse":"Mobiles WC Hohenstein","adrzus_int":null,"behindertenparkplatz":null,"bemerkung":"Die mobile WC-Anlage ist ganzjährig offen.","ccmail":null,"da":"Umwelt- und Gesundheitsschutz","datum":"202412161145","datum_cms":null,"dep":"Gesundheits- und Umweltdepartement (GUD)","editor":"ugzget","erforderlichedokumente":null,"fax":null,"geometrie_gdo":null,"hausnummer":null,"hindernisfreiheit":"0__","infrastruktur":";Komposttoilette Hohenstein<br>Ganzjährig","isbetriebsferien_gebaeude":"1","isbetriebsferien_schalter":"0","kategorie":"Mobile Toiletten (nicht rollstuhlgängig)","mail":"ugz-zueriwc@zuerich.ch","name":"Mobiles WC Hohenstein","namenzus":null,"objectid":4,"oeffnungszeiten_gebaeude_di":"n.a.","oeffnungszeiten_gebaeude_do":"n.a.","oeffnungszeiten_gebaeude_fr":"n.a.","oeffnungszeiten_gebaeude_mi":"n.a.","oeffnungszeiten_gebaeude_mo":"n.a.","oeffnungszeiten_gebaeude_sa":"n.a.","oeffnungszeiten_gebaeude_so":"n.a.","oeffnungszeiten_schalter_di":"n.a.","oeffnungszeiten_schalter_do":"n.a.","oeffnungszeiten_schalter_fr":"n.a.","oeffnungszeiten_schalter_mi":"n.a.","oeffnungszeiten_schalter_mo":"n.a.","oeffnungszeiten_schalter_sa":"n.a.","oeffnungszeiten_schalter_so":"n.a.","ort":"Zürich","plz":"8055","poi_id":"wcm7352","postadresse":null,"publish_internet":"1","strasse":null,"suchen":"Toilette, Toiletten","tel":"+41 44 412 43 65","tel2":null,"www":"https://www.stadt-zuerich.ch/zueriwc","zahlungsmittel_internet":"NULL;NULL;","zahlungsmittel_schalter":"NULL;NULL;","zahlungsmittel_telefon":"NULL;NULL;","zvv_label":"Mobiles WC Hohenstein","zvv_link":"https://www.zvv.ch/de/fahrplan-und-informationen/fahrplan.html?toname=Zürich, Hohensteinstrasse 205"},"type":"Feature"}
 ,{"geometry":{"coordinates":[8.51579,47.379702],"type":"Point"},"id":"poi_zueriwc_mobil_view.5","properties":{"adr_inter":null,"adresse":"Mobiles WC Bullingerplatz","adrzus_int":null,"behindertenparkplatz":null,"bemerkung":"Die mobile WC-Anlage ist jeweils von Anfang April bis Ende Oktober offen.","ccmail":null,"da":"Umwelt- und Gesundheitsschutz","datum":"202412161145","datum_cms":null,"dep":"Gesundheits- und Umweltdepartement (GUD)","editor":"ugzfir","erforderlichedokumente":null,"fax":null,"geometrie_gdo":null,"hausnummer":null,"hindernisfreiheit":"0__","infrastruktur":";Komposttoilette Bullingerplatz<br>1 Kompotoi April-Oktober","isbetriebsferien_gebaeude":"1","isbetriebsferien_schalter":"0","kategorie":"Mobile Toiletten (nicht rollstuhlgängig)","mail":"ugz-zueriwc@zuerich.ch","name":"Mobiles WC Bullingerplatz","namenzus":null,"objectid":5,"oeffnungszeiten_gebaeude_di":"n.a.","oeffnungszeiten_gebaeude_do":"n.a.","oeffnungszeiten_gebaeude_fr":"n.a.","oeffnungszeiten_gebaeude_mi":"n.a.","oeffnungszeiten_gebaeude_mo":"n.a.","oeffnungszeiten_gebaeude_sa":"n.a.","oeffnungszeiten_gebaeude_so":"n.a.","oeffnungszeiten_schalter_di":"n.a.","oeffnungszeiten_schalter_do":"n.a.","oeffnungszeiten_schalter_fr":"n.a.","oeffnungszeiten_schalter_mi":"n.a.","oeffnungszeiten_schalter_mo":"n.a.","oeffnungszeiten_schalter_sa":"n.a.","oeffnungszeiten_schalter_so":"n.a.","ort":"Zürich","plz":"8004","poi_id":"wcm11583","postadresse":null,"publish_internet":"0","strasse":null,"suchen":"Toilette, Toiletten","tel":"+41 44 412 43 65","tel2":null,"www":"https://www.stadt-zuerich.ch/zueriwc","zahlungsmittel_internet":"NULL;NULL;","zahlungsmittel_schalter":"NULL;NULL;","zahlungsmittel_telefon":"NULL;NULL;","zvv_label":"Mobiles WC Bullingerplatz","zvv_link":"https://www.zvv.ch/de/fahrplan-und-informationen/fahrplan.html?toname=Zürich, Bullingerstrasse 4"},"type":"Feature"}
 ,{"geometry":{"coordinates":[8.556529,47.376725],"type":"Point"},"id":"poi_zueriwc_mobil_view.6","properties":{"adr_inter":null,"adresse":"Mobiles WC Kirche Fluntern","adrzus_int":null,"behindertenparkplatz":null,"bemerkung":"Die mobile WC-Anlage ist jeweils von Anfang April bis Ende Oktober offen.","ccmail":null,"da":"Umwelt- und Gesundheitsschutz","datum":"202412161145","datum_cms":null,"dep":"Gesundheits- und Umweltdepartement (GUD)","editor":"ugzfir","erforderlichedokumente":null,"fax":null,"geometrie_gdo":null,"hausnummer":null,"hindernisfreiheit":"0__","infrastruktur":";Komposttoilette Kirche Fluntern<br>April bis Oktober","isbetriebsferien_gebaeude":"1","isbetriebsferien_schalter":"0","kategorie":"Mobile Toiletten (nicht rollstuhlgängig)","mail":"ugz-zueriwc@zuerich.ch","name":"Mobiles WC Kirche Fluntern","namenzus":null,"objectid":6,"oeffnungszeiten_gebaeude_di":"n.a.","oeffnungszeiten_gebaeude_do":"n.a.","oeffnungszeiten_gebaeude_fr":"n.a.","oeffnungszeiten_gebaeude_mi":"n.a.","oeffnungszeiten_gebaeude_mo":"n.a.","oeffnungszeiten_gebaeude_sa":"n.a.","oeffnungszeiten_gebaeude_so":"n.a.","oeffnungszeiten_schalter_di":"n.a.","oeffnungszeiten_schalter_do":"n.a.","oeffnungszeiten_schalter_fr":"n.a.","oeffnungszeiten_schalter_mi":"n.a.","oeffnungszeiten_schalter_mo":"n.a.","oeffnungszeiten_schalter_sa":"n.a.","oeffnungszeiten_schalter_so":"n.a.","ort":"Zürich","plz":"8044","poi_id":"wcm11624","postadresse":null,"publish_internet":"0","strasse":null,"suchen":"Toilette, Toiletten","tel":"+41 44 412 43 65","tel2":null,"www":"https://www.stadt-zuerich.ch/zueriwc","zahlungsmittel_internet":"NULL;NULL;","zahlungsmittel_schalter":"NULL;NULL;","zahlungsmittel_telefon":"NULL;NULL;","zvv_label":"Mobiles WC Kirche Fluntern","zvv_link":"https://www.zvv.ch/de/fahrplan-und-informationen/fahrplan.html?toname=Zürich, Kantstrasse 21"},"type":"Feature"}
 ,{"geometry":{"coordinates":[8.532143,47.387995],"type":"Point"},"id":"poi_zueriwc_mobil_view.7","properties":{"adr_inter":null,"adresse":"Mobiles WC Parkplatz Letten","adrzus_int":null,"behindertenparkplatz":null,"bemerkung":"Die mobile WC-Anlage ist jeweils von Anfang April bis Ende Oktober offen.","ccmail":null,"da":"Umwelt- und Gesundheitsschutz","datum":"202412161145","datum_cms":null,"dep":"Gesundheits- und Umweltdepartement (GUD)","editor":"ugzfir","erforderlichedokumente":null,"fax":null,"geometrie_gdo":null,"hausnummer":null,"hindernisfreiheit":"0__","infrastruktur":";Komposttoilette Parkplatz Letten<br>April-Oktober","isbetriebsferien_gebaeude":"1","isbetriebsferien_schalter":"0","kategorie":"Mobile Toiletten (nicht rollstuhlgängig)","mail":"ugz-zueriwc@zuerich.ch","name":"Mobiles WC Parkplatz Letten","namenzus":null,"objectid":7,"oeffnungszeiten_gebaeude_di":"n.a.","oeffnungszeiten_gebaeude_do":"n.a.","oeffnungszeiten_gebaeude_fr":"n.a.","oeffnungszeiten_gebaeude_mi":"n.a.","oeffnungszeiten_gebaeude_mo":"n.a.","oeffnungszeiten_gebaeude_sa":"n.a.","oeffnungszeiten_gebaeude_so":"n.a.","oeffnungszeiten_schalter_di":"n.a.","oeffnungszeiten_schalter_do":"n.a.","oeffnungszeiten_schalter_fr":"n.a.","oeffnungszeiten_schalter_mi":"n.a.","oeffnungszeiten_schalter_mo":"n.a.","oeffnungszeiten_schalter_sa":"n.a.","oeffnungszeiten_schalter_so":"n.a.","ort":"Zürich","plz":"8037","poi_id":"wcm11630","postadresse":null,"publish_internet":"0","strasse":null,"suchen":"Toilette, Toiletten","tel":"+41 44 412 43 65","tel2":null,"www":"https://www.stadt-zuerich.ch/gud/de/index/gesundheitsschutz/zueriwc.html","zahlungsmittel_internet":"NULL;NULL;","zahlungsmittel_schalter":"NULL;NULL;","zahlungsmittel_telefon":"NULL;NULL;","zvv_label":"Mobiles WC Parkplatz Letten","zvv_link":"https://www.zvv.ch/de/fahrplan-und-informationen/fahrplan.html?toname=Zürich, Wasserwerkstrasse 107"},"type":"Feature"}
 ,{"geometry":{"coordinates":[8.530366,47.376912],"type":"Point"},"id":"poi_zueriwc_mobil_view.8","properties":{"adr_inter":"","adresse":"Mobiles WC Zeughaushof","adrzus_int":"","behindertenparkplatz":"0","bemerkung":"Zurzeit ist.das TOI TOI auf der Seite Kasernenwiese, Höhe Militärstrasse 45 aufgestellt.","ccmail":"","da":"Umwelt- und Gesundheitsschutz","datum":"202511061639","datum_cms":null,"dep":"Gesundheits- und Umweltdepartement (GUD)","editor":"geoang","erforderlichedokumente":"","fax":"","geometrie_gdo":null,"hausnummer":"","hindernisfreiheit":"0__","infrastruktur":";ToiToi Toilette Zeughaushof","isbetriebsferien_gebaeude":"1","isbetriebsferien_schalter":"0","kategorie":"Mobile Toiletten (nicht rollstuhlgängig)","mail":"ugz-zueriwc@zuerich.ch","name":"Mobiles WC Zeughaushof","namenzus":"","objectid":8,"oeffnungszeiten_gebaeude_di":"n.a.","oeffnungszeiten_gebaeude_do":"n.a.","oeffnungszeiten_gebaeude_fr":"n.a.","oeffnungszeiten_gebaeude_mi":"n.a.","oeffnungszeiten_gebaeude_mo":"n.a.","oeffnungszeiten_gebaeude_sa":"n.a.","oeffnungszeiten_gebaeude_so":"n.a.","oeffnungszeiten_schalter_di":"n.a.","oeffnungszeiten_schalter_do":"n.a.","oeffnungszeiten_schalter_fr":"n.a.","oeffnungszeiten_schalter_mi":"n.a.","oeffnungszeiten_schalter_mo":"n.a.","oeffnungszeiten_schalter_sa":"n.a.","oeffnungszeiten_schalter_so":"n.a.","ort":"Zürich","plz":"8004","poi_id":"wcm11623","postadresse":"","publish_internet":"1","strasse":"","suchen":"Toilette, Toiletten","tel":"+41 44 412 43 65","tel2":"","www":"https://www.stadt-zuerich.ch/zueriwc","zahlungsmittel_internet":"NULL;NULL;","zahlungsmittel_schalter":"NULL;NULL;","zahlungsmittel_telefon":"NULL;NULL;","zvv_label":"Mobiles WC Zeughaushof","zvv_link":"https://www.zvv.ch/de/fahrplan-und-informationen/fahrplan.html?tolat=47.3769085552449&tolon=8.53036540957245&toname="},"type":"Feature"}
 ,{"geometry":{"coordinates":[8.567004,47.368581],"type":"Point"},"id":"poi_zueriwc_mobil_view.9","properties":{"adr_inter":null,"adresse":"Mobiles WC Sonnenbergterrasse","adrzus_int":null,"behindertenparkplatz":null,"bemerkung":null,"ccmail":null,"da":"Umwelt- und Gesundheitsschutz","datum":"202412161145","datum_cms":null,"dep":"Gesundheits- und Umweltdepartement (GUD)","editor":"ugzget","erforderlichedokumente":null,"fax":null,"geometrie_gdo":null,"hausnummer":null,"hindernisfreiheit":"0__","infrastruktur":";Komposttoilette Sonnenbergterrasse<br>April bis Oktober","isbetriebsferien_gebaeude":"1","isbetriebsferien_schalter":"0","kategorie":"Mobile Toiletten (nicht rollstuhlgängig)","mail":"ugz-zuerwc@zuerich.ch","name":"Mobiles WC Sonnenberterrasse","namenzus":null,"objectid":9,"oeffnungszeiten_gebaeude_di":"n.a.","oeffnungszeiten_gebaeude_do":"n.a.","oeffnungszeiten_gebaeude_fr":"n.a.","oeffnungszeiten_gebaeude_mi":"n.a.","oeffnungszeiten_gebaeude_mo":"n.a.","oeffnungszeiten_gebaeude_sa":"n.a.","oeffnungszeiten_gebaeude_so":"n.a.","oeffnungszeiten_schalter_di":"n.a.","oeffnungszeiten_schalter_do":"n.a.","oeffnungszeiten_schalter_fr":"n.a.","oeffnungszeiten_schalter_mi":"n.a.","oeffnungszeiten_schalter_mo":"n.a.","oeffnungszeiten_schalter_sa":"n.a.","oeffnungszeiten_schalter_so":"n.a.","ort":"Zürich","plz":"8032","poi_id":"wcm11633","postadresse":null,"publish_internet":"0","strasse":null,"suchen":"Toilette, Toiletten","tel":"+41 44 412 43 65","tel2":null,"www":"https://www.stadt-zuerich.ch/zueriwc","zahlungsmittel_internet":"NULL;NULL;","zahlungsmittel_schalter":"NULL;NULL;","zahlungsmittel_telefon":"NULL;NULL;","zvv_label":"Mobiles WC Sonnenbergterrasse","zvv_link":"https://www.zvv.ch/de/fahrplan-und-informationen/fahrplan.html?toname=Zürich, Heuelstrasse 43"},"type":"Feature"}
 ,{"geometry":{"coordinates":[8.563668,47.346045],"type":"Point"},"id":"poi_zueriwc_mobil_view.10","properties":{"adr_inter":null,"adresse":"Mobiles WC Tiefenbrunnen","adrzus_int":null,"behindertenparkplatz":null,"bemerkung":"Die mobile WC-Anlage ist jeweils von Anfang November bis Ende März offen.","ccmail":null,"da":"Umwelt- und Gesundheitsschutz","datum":"202412161145","datum_cms":null,"dep":"Gesundheits- und Umweltdepartement (GUD)","editor":"ugzget","erforderlichedokumente":null,"fax":null,"geometrie_gdo":null,"hausnummer":null,"hindernisfreiheit":"0__","infrastruktur":";Komposttoilette Tiefenbrunnen<br>November bis Februar bei<br>Winterschliessung des nahen ZüriWC","isbetriebsferien_gebaeude":"1","isbetriebsferien_schalter":"0","kategorie":"Mobile Toiletten (nicht rollstuhlgängig)","mail":"ugz-zueriwc@zuerich.ch","name":"Mobiles WC Tiefenbrunnen","namenzus":null,"objectid":10,"oeffnungszeiten_gebaeude_di":"n.a.","oeffnungszeiten_gebaeude_do":"n.a.","oeffnungszeiten_gebaeude_fr":"n.a.","oeffnungszeiten_gebaeude_mi":"n.a.","oeffnungszeiten_gebaeude_mo":"n.a.","oeffnungszeiten_gebaeude_sa":"n.a.","oeffnungszeiten_gebaeude_so":"n.a.","oeffnungszeiten_schalter_di":"n.a.","oeffnungszeiten_schalter_do":"n.a.","oeffnungszeiten_schalter_fr":"n.a.","oeffnungszeiten_schalter_mi":"n.a.","oeffnungszeiten_schalter_mo":"n.a.","oeffnungszeiten_schalter_sa":"n.a.","oeffnungszeiten_schalter_so":"n.a.","ort":"Zürich","plz":"8008","poi_id":"wcm11634","postadresse":null,"publish_internet":"1","strasse":null,"suchen":"Toilette, Toiletten","tel":"+41 44 412 43 65","tel2":null,"www":"https://www.stadt-zuerich.ch/zueriwc","zahlungsmittel_internet":"NULL;NULL;","zahlungsmittel_schalter":"NULL;NULL;","zahlungsmittel_telefon":"NULL;NULL;","zvv_label":"Mobiles WC Tiefenbrunnen","zvv_link":"https://www.zvv.ch/de/fahrplan-und-informationen/fahrplan.html?toname=Zürich, Bellerivestrasse 312"},"type":"Feature"}
 ,{"geometry":{"coordinates":[8.519329,47.392946],"type":"Point"},"id":"poi_zueriwc_mobil_view.11","properties":{"adr_inter":null,"adresse":"Mobiles WC Wipkingerpark","adrzus_int":null,"behindertenparkplatz":null,"bemerkung":null,"ccmail":null,"da":"Umwelt- und Gesundheitsschutz","datum":"202412161145","datum_cms":null,"dep":"Gesundheits- und Umweltdepartement (GUD)","editor":"ugzget","erforderlichedokumente":null,"fax":null,"geometrie_gdo":null,"hausnummer":null,"hindernisfreiheit":"0__","infrastruktur":";Komposttoilette<br>April bis Oktober","isbetriebsferien_gebaeude":"1","isbetriebsferien_schalter":"0","kategorie":"Mobile Toiletten (nicht rollstuhlgängig)","mail":"ugz-zueriwc@zuerich.ch","name":"Mobiles WC Wipkingerpark","namenzus":null,"objectid":11,"oeffnungszeiten_gebaeude_di":"n.a.","oeffnungszeiten_gebaeude_do":"n.a.","oeffnungszeiten_gebaeude_fr":"n.a.","oeffnungszeiten_gebaeude_mi":"n.a.","oeffnungszeiten_gebaeude_mo":"n.a.","oeffnungszeiten_gebaeude_sa":"n.a.","oeffnungszeiten_gebaeude_so":"n.a.","oeffnungszeiten_schalter_di":"n.a.","oeffnungszeiten_schalter_do":"n.a.","oeffnungszeiten_schalter_fr":"n.a.","oeffnungszeiten_schalter_mi":"n.a.","oeffnungszeiten_schalter_mo":"n.a.","oeffnungszeiten_schalter_sa":"n.a.","oeffnungszeiten_schalter_so":"n.a.","ort":"Zürich","plz":"8037","poi_id":"wcm11635","postadresse":null,"publish_internet":"0","strasse":null,"suchen":"Toilette, Toiletten","tel":"+41 44 412 43 65","tel2":null,"www":"https://www.stadt-zuerich.ch/zueriwc","zahlungsmittel_internet":"NULL;NULL;","zahlungsmittel_schalter":"NULL;NULL;","zahlungsmittel_telefon":"NULL;NULL;","zvv_label":"Mobiles WC Wipkingerpark","zvv_link":"https://www.zvv.ch/de/fahrplan-und-informationen/fahrplan.html?toname=Zürich, Ampèrestrasse 2"},"type":"Feature"}
 ,{"geometry":{"coordinates":[8.520984,47.375957],"type":"Point"},"id":"poi_zueriwc_mobil_view.12","properties":{"adr_inter":null,"adresse":"Mobiles WC Pflanzschulwiese","adrzus_int":null,"behindertenparkplatz":null,"bemerkung":"Die mobile WC-Anlage ist jeweils von Anfang Juni bis Ende Oktober offen.","ccmail":null,"da":"Umwelt- und Gesundheitsschutz","datum":"202412161145","datum_cms":null,"dep":"Gesundheits- und Umweltdepartement (GUD)","editor":"ugzfir","erforderlichedokumente":null,"fax":null,"geometrie_gdo":null,"hausnummer":null,"hindernisfreiheit":"0__","infrastruktur":";Komposttoilette Pflanzschulwiese<br>April bis Oktober","isbetriebsferien_gebaeude":"1","isbetriebsferien_schalter":"0","kategorie":"Mobile Toiletten (nicht rollstuhlgängig)","mail":"ugz-zueriwc@zuerich.ch","name":"Mobiles WC Pflanzschulwiese","namenzus":null,"objectid":12,"oeffnungszeiten_gebaeude_di":"n.a.","oeffnungszeiten_gebaeude_do":"n.a.","oeffnungszeiten_gebaeude_fr":"n.a.","oeffnungszeiten_gebaeude_mi":"n.a.","oeffnungszeiten_gebaeude_mo":"n.a.","oeffnungszeiten_gebaeude_sa":"n.a.","oeffnungszeiten_gebaeude_so":"n.a.","oeffnungszeiten_schalter_di":"n.a.","oeffnungszeiten_schalter_do":"n.a.","oeffnungszeiten_schalter_fr":"n.a.","oeffnungszeiten_schalter_mi":"n.a.","oeffnungszeiten_schalter_mo":"n.a.","oeffnungszeiten_schalter_sa":"n.a.","oeffnungszeiten_schalter_so":"n.a.","ort":"Zürich","plz":"8004","poi_id":"wcm11631","postadresse":null,"publish_internet":"0","strasse":null,"suchen":"Toilette, Toiletten","tel":"+41 44 412 43 65","tel2":null,"www":"https://www.stadt-zuerich.ch/zueriwc","zahlungsmittel_internet":"NULL;NULL;","zahlungsmittel_schalter":"NULL;NULL;","zahlungsmittel_telefon":"NULL;NULL;","zvv_label":"Mobiles WC Pflanzschulwiese","zvv_link":"https://www.zvv.ch/de/fahrplan-und-informationen/fahrplan.html?toname=Zürich, Feldstrasse 35"},"type":"Feature"}
 ,{"geometry":{"coordinates":[8.535579,47.349032],"type":"Point"},"id":"poi_zueriwc_mobil_view.13","properties":{"adr_inter":null,"adresse":"Mobiles WC Landiwiese","adrzus_int":null,"behindertenparkplatz":null,"bemerkung":"Die mobile WC-Anlage ist jeweils von Anfang Juli bis Ende Oktober offen.","ccmail":null,"da":"Umwelt- und Gesundheitsschutz","datum":"202412161145","datum_cms":null,"dep":"Gesundheits- und Umweltdepartement (GUD)","editor":"ugzfir","erforderlichedokumente":null,"fax":null,"geometrie_gdo":null,"hausnummer":null,"hindernisfreiheit":"0__","infrastruktur":";Komposttoilette Landiwiese<br>Ergänzend zum ZüriWC Landiwiese<br>April bis Oktober","isbetriebsferien_gebaeude":"1","isbetriebsferien_schalter":"0","kategorie":"Mobile Toiletten (nicht rollstuhlgängig)","mail":"ugz-zueriwc@zuerich.ch","name":"Mobiles WC Landiwiese","namenzus":null,"objectid":13,"oeffnungszeiten_gebaeude_di":"n.a.","oeffnungszeiten_gebaeude_do":"n.a.","oeffnungszeiten_gebaeude_fr":"n.a.","oeffnungszeiten_gebaeude_mi":"n.a.","oeffnungszeiten_gebaeude_mo":"n.a.","oeffnungszeiten_gebaeude_sa":"n.a.","oeffnungszeiten_gebaeude_so":"n.a.","oeffnungszeiten_schalter_di":"n.a.","oeffnungszeiten_schalter_do":"n.a.","oeffnungszeiten_schalter_fr":"n.a.","oeffnungszeiten_schalter_mi":"n.a.","oeffnungszeiten_schalter_mo":"n.a.","oeffnungszeiten_schalter_sa":"n.a.","oeffnungszeiten_schalter_so":"n.a.","ort":"Zürich","plz":"8038","poi_id":"wcm11625","postadresse":null,"publish_internet":"0","strasse":null,"suchen":"Toilette, Toiletten","tel":"+41 44 412 43 65","tel2":null,"www":"https://www.stadt-zuerich.ch/gud/de/index/gesundheitsschutz/zueriwc.html","zahlungsmittel_internet":"NULL;NULL;","zahlungsmittel_schalter":"NULL;NULL;","zahlungsmittel_telefon":"NULL;NULL;","zvv_label":"Mobiles WC Landiwiese","zvv_link":"https://www.zvv.ch/de/fahrplan-und-informationen/fahrplan.html?toname=Zürich, Mythenquai 317"},"type":"Feature"}
 ,{"geometry":{"coordinates":[8.539704,47.412282],"type":"Point"},"id":"poi_zueriwc_mobil_view.14","properties":{"adr_inter":null,"adresse":"Mobiles WC MFO Park","adrzus_int":null,"behindertenparkplatz":null,"bemerkung":"Die mobile WC-Anlage ist jeweils von Anfang April bis Ende Oktober offen.","ccmail":null,"da":"Umwelt- und Gesundheitsschutz","datum":"202412161145","datum_cms":null,"dep":"Gesundheits- und Umweltdepartement (GUD)","editor":"ugzfir","erforderlichedokumente":null,"fax":null,"geometrie_gdo":null,"hausnummer":null,"hindernisfreiheit":"0__","infrastruktur":";Komposttoilette MFO Park<br>April bis Oktober","isbetriebsferien_gebaeude":"1","isbetriebsferien_schalter":"0","kategorie":"Mobile Toiletten (nicht rollstuhlgängig)","mail":"ugz-zueriwc@zuerich.ch","name":"Mobiles WC MFO-Park","namenzus":null,"objectid":14,"oeffnungszeiten_gebaeude_di":"n.a.","oeffnungszeiten_gebaeude_do":"n.a.","oeffnungszeiten_gebaeude_fr":"n.a.","oeffnungszeiten_gebaeude_mi":"n.a.","oeffnungszeiten_gebaeude_mo":"n.a.","oeffnungszeiten_gebaeude_sa":"n.a.","oeffnungszeiten_gebaeude_so":"n.a.","oeffnungszeiten_schalter_di":"n.a.","oeffnungszeiten_schalter_do":"n.a.","oeffnungszeiten_schalter_fr":"n.a.","oeffnungszeiten_schalter_mi":"n.a.","oeffnungszeiten_schalter_mo":"n.a.","oeffnungszeiten_schalter_sa":"n.a.","oeffnungszeiten_schalter_so":"n.a.","ort":"Zürich","plz":"8050","poi_id":"wcm11626","postadresse":null,"publish_internet":"0","strasse":null,"suchen":"Toilette, Toiletten","tel":"+41 44 412 43 65","tel2":null,"www":"https://www.stadt-zuerich.ch/zueriwc","zahlungsmittel_internet":"NULL;NULL;","zahlungsmittel_schalter":"NULL;NULL;","zahlungsmittel_telefon":"NULL;NULL;","zvv_label":"Mobiles WC MFO Park","zvv_link":"https://www.zvv.ch/de/fahrplan-und-informationen/fahrplan.html?toname=Zürich, Sophie-Taeuber-Strasse 10"},"type":"Feature"}
 ,{"geometry":{"coordinates":[8.528633,47.393201],"type":"Point"},"id":"poi_zueriwc_mobil_view.15","properties":{"adr_inter":null,"adresse":"Mobiles WC Röschibachplatz","adrzus_int":null,"behindertenparkplatz":null,"bemerkung":"Die mobile WC-Anlage ist ganzjährig offen.","ccmail":null,"da":"Umwelt- und Gesundheitsschutz","datum":"202412161145","datum_cms":null,"dep":"Gesundheits- und Umweltdepartement (GUD)","editor":"ugzget","erforderlichedokumente":null,"fax":null,"geometrie_gdo":null,"hausnummer":null,"hindernisfreiheit":"0__","infrastruktur":";Komposttoilette Röschibachplatz","isbetriebsferien_gebaeude":"1","isbetriebsferien_schalter":"0","kategorie":"Mobile Toiletten (nicht rollstuhlgängig)","mail":"ugz-zueriwc@zuerich.ch","name":"Mobiles WC Röschibachplatz","namenzus":null,"objectid":15,"oeffnungszeiten_gebaeude_di":"n.a.","oeffnungszeiten_gebaeude_do":"n.a.","oeffnungszeiten_gebaeude_fr":"n.a.","oeffnungszeiten_gebaeude_mi":"n.a.","oeffnungszeiten_gebaeude_mo":"n.a.","oeffnungszeiten_gebaeude_sa":"n.a.","oeffnungszeiten_gebaeude_so":"n.a.","oeffnungszeiten_schalter_di":"n.a.","oeffnungszeiten_schalter_do":"n.a.","oeffnungszeiten_schalter_fr":"n.a.","oeffnungszeiten_schalter_mi":"n.a.","oeffnungszeiten_schalter_mo":"n.a.","oeffnungszeiten_schalter_sa":"n.a.","oeffnungszeiten_schalter_so":"n.a.","ort":"Zürich","plz":"8037","poi_id":"wcm11632","postadresse":null,"publish_internet":"1","strasse":null,"suchen":"Toilette, Toiletten","tel":"+41 44 412 43 65","tel2":null,"www":"https://www.stadt-zuerich.ch/zueriwc","zahlungsmittel_internet":"NULL;NULL;","zahlungsmittel_schalter":"NULL;NULL;","zahlungsmittel_telefon":"NULL;NULL;","zvv_label":"Mobiles WC Röschibachplatz","zvv_link":"https://www.zvv.ch/de/fahrplan-und-informationen/fahrplan.html?toname=Zürich, Röschibachstrasse 72"},"type":"Feature"}
 ,{"geometry":{"coordinates":[8.546279,47.38688],"type":"Point"},"id":"poi_zueriwc_mobil_view.16","properties":{"adr_inter":null,"adresse":"Mobiles WC Stolzewiese","adrzus_int":null,"behindertenparkplatz":null,"bemerkung":"Die mobile WC-Anlage ist jeweils von Anfang April bis Ende Oktober offen.","ccmail":null,"da":"Umwelt- und Gesundheitsschutz","datum":"202412161145","datum_cms":null,"dep":"Gesundheits- und Umweltdepartement (GUD)","editor":"ugzfir","erforderlichedokumente":null,"fax":null,"geometrie_gdo":null,"hausnummer":null,"hindernisfreiheit":"0__","infrastruktur":";Mobile Komposttoilette","isbetriebsferien_gebaeude":"1","isbetriebsferien_schalter":"0","kategorie":"Mobile Toiletten (nicht rollstuhlgängig)","mail":"ugz-zueriwc@zuerich.ch","name":"Mobiles WC Stolzewiese","namenzus":null,"objectid":16,"oeffnungszeiten_gebaeude_di":"n.a.","oeffnungszeiten_gebaeude_do":"n.a.","oeffnungszeiten_gebaeude_fr":"n.a.","oeffnungszeiten_gebaeude_mi":"n.a.","oeffnungszeiten_gebaeude_mo":"n.a.","oeffnungszeiten_gebaeude_sa":"n.a.","oeffnungszeiten_gebaeude_so":"n.a.","oeffnungszeiten_schalter_di":"n.a.","oeffnungszeiten_schalter_do":"n.a.","oeffnungszeiten_schalter_fr":"n.a.","oeffnungszeiten_schalter_mi":"n.a.","oeffnungszeiten_schalter_mo":"n.a.","oeffnungszeiten_schalter_sa":"n.a.","oeffnungszeiten_schalter_so":"n.a.","ort":"Zürich","plz":"8006","poi_id":"wcm8683","postadresse":null,"publish_internet":"0","strasse":null,"suchen":"Toilette, Toiletten","tel":"+41 44 412 43 65","tel2":null,"www":"https://www.stadt-zuerich.ch/zueriwc","zahlungsmittel_internet":"NULL;NULL;","zahlungsmittel_schalter":"NULL;NULL;","zahlungsmittel_telefon":"NULL;NULL;","zvv_label":"Mobiles WC Stolzewiese","zvv_link":"https://www.zvv.ch/de/fahrplan-und-informationen/fahrplan.html?toname=Zürich, Stolzestrasse 9"},"type":"Feature"}
 ,{"geometry":{"coordinates":[8.522693,47.385746],"type":"Point"},"id":"poi_zueriwc_mobil_view.17","properties":{"adr_inter":"","adresse":"Mobiles WC Josefwiese","adrzus_int":"","behindertenparkplatz":"0","bemerkung":"Die mobile WC-Anlage ist jeweils von Anfang April bis Ende Oktober offen.","ccmail":"","da":"Umwelt- und Gesundheitsschutz","datum":"202511061639","datum_cms":null,"dep":"Gesundheits- und Umweltdepartement (GUD)","editor":"geoang","erforderlichedokumente":"","fax":"","geometrie_gdo":null,"hausnummer":"","hindernisfreiheit":"0__","infrastruktur":";Komposttoilette Josefwiese<br>Ergänzend zum ZüriWC<br>April-Oktober","isbetriebsferien_gebaeude":"1","isbetriebsferien_schalter":"0","kategorie":"Mobile Toiletten (nicht rollstuhlgängig)","mail":"ugz-zueriwc@zuerich.ch","name":"Mobiles WC Josefswiese","namenzus":"","objectid":17,"oeffnungszeiten_gebaeude_di":"n.a.","oeffnungszeiten_gebaeude_do":"n.a.","oeffnungszeiten_gebaeude_fr":"n.a.","oeffnungszeiten_gebaeude_mi":"n.a.","oeffnungszeiten_gebaeude_mo":"n.a.","oeffnungszeiten_gebaeude_sa":"n.a.","oeffnungszeiten_gebaeude_so":"n.a.","oeffnungszeiten_schalter_di":"n.a.","oeffnungszeiten_schalter_do":"n.a.","oeffnungszeiten_schalter_fr":"n.a.","oeffnungszeiten_schalter_mi":"n.a.","oeffnungszeiten_schalter_mo":"n.a.","oeffnungszeiten_schalter_sa":"n.a.","oeffnungszeiten_schalter_so":"n.a.","ort":"Zürich","plz":"8005","poi_id":"wcm11622","postadresse":"","publish_internet":"1","strasse":"","suchen":"Toilette, Toiletten","tel":"+41 44 412 43 65","tel2":"","www":"https://www.stadt-zuerich.ch/zueriwc","zahlungsmittel_internet":"NULL;NULL;","zahlungsmittel_schalter":"NULL;NULL;","zahlungsmittel_telefon":"NULL;NULL;","zvv_label":"Mobiles WC Josefwiese","zvv_link":"https://www.zvv.ch/de/fahrplan-und-informationen/fahrplan.html?tolat=47.3857420595132&tolon=8.52269230083737&toname="},"type":"Feature"}
 ,{"geometry":{"coordinates":[8.516965,47.374303],"type":"Point"},"id":"poi_zueriwc_mobil_view.18","properties":{"adr_inter":null,"adresse":"Mobiles WC Brupbacherplatz","adrzus_int":null,"behindertenparkplatz":null,"bemerkung":null,"ccmail":null,"da":"Umwelt- und Gesundheitsschutz","datum":"202412161145","datum_cms":null,"dep":"Gesundheits- und Umweltdepartement (GUD)","editor":"ugzget","erforderlichedokumente":null,"fax":null,"geometrie_gdo":null,"hausnummer":null,"hindernisfreiheit":"0__","infrastruktur":";NULL","isbetriebsferien_gebaeude":"1","isbetriebsferien_schalter":"0","kategorie":"Mobile Toiletten (nicht rollstuhlgängig)","mail":"ugz-zueriwc@zuerich.ch","name":"Mobiles WC Brupbacherplatz","namenzus":null,"objectid":18,"oeffnungszeiten_gebaeude_di":"n.a.","oeffnungszeiten_gebaeude_do":"n.a.","oeffnungszeiten_gebaeude_fr":"n.a.","oeffnungszeiten_gebaeude_mi":"n.a.","oeffnungszeiten_gebaeude_mo":"n.a.","oeffnungszeiten_gebaeude_sa":"n.a.","oeffnungszeiten_gebaeude_so":"n.a.","oeffnungszeiten_schalter_di":"n.a.","oeffnungszeiten_schalter_do":"n.a.","oeffnungszeiten_schalter_fr":"n.a.","oeffnungszeiten_schalter_mi":"n.a.","oeffnungszeiten_schalter_mo":"n.a.","oeffnungszeiten_schalter_sa":"n.a.","oeffnungszeiten_schalter_so":"n.a.","ort":"Zürich","plz":"8003","poi_id":"wcm11582","postadresse":null,"publish_internet":"1","strasse":null,"suchen":"Toilette, Toiletten","tel":"+41 44 412 43 65","tel2":null,"www":"https://www.stadt-zuerich.ch/zueriwc","zahlungsmittel_internet":"NULL;NULL;","zahlungsmittel_schalter":"NULL;NULL;","zahlungsmittel_telefon":"NULL;NULL;","zvv_label":"Mobiles WC Brupbacherplatz","zvv_link":"https://www.zvv.ch/de/fahrplan-und-informationen/fahrplan.html?toname=Zürich, Sihlfeldstrasse 32"},"type":"Feature"}
 ,{"geometry":{"coordinates":[8.530713,47.383493],"type":"Point"},"id":"poi_zueriwc_mobil_view.19","properties":{"adr_inter":null,"adresse":"Mobiles WC Emilie-Lieberherr-Platz","adrzus_int":null,"behindertenparkplatz":null,"bemerkung":"Die mobile WC-Anlage ist ganzjährig offen.","ccmail":null,"da":"Umwelt- und Gesundheitsschutz","datum":"202412161145","datum_cms":null,"dep":"Gesundheits- und Umweltdepartement (GUD)","editor":"ugzget","erforderlichedokumente":null,"fax":null,"geometrie_gdo":null,"hausnummer":null,"hindernisfreiheit":"0__","infrastruktur":";Komposttoilette Emilie-Lieberherr-Platz","isbetriebsferien_gebaeude":"1","isbetriebsferien_schalter":"0","kategorie":"Mobile Toiletten (nicht rollstuhlgängig)","mail":"ugz-zueriwc@zuerich.ch","name":"Mobiles WC Emilie-Lieberherr-Platz","namenzus":null,"objectid":19,"oeffnungszeiten_gebaeude_di":"n.a.","oeffnungszeiten_gebaeude_do":"n.a.","oeffnungszeiten_gebaeude_fr":"n.a.","oeffnungszeiten_gebaeude_mi":"n.a.","oeffnungszeiten_gebaeude_mo":"n.a.","oeffnungszeiten_gebaeude_sa":"n.a.","oeffnungszeiten_gebaeude_so":"n.a.","oeffnungszeiten_schalter_di":"n.a.","oeffnungszeiten_schalter_do":"n.a.","oeffnungszeiten_schalter_fr":"n.a.","oeffnungszeiten_schalter_mi":"n.a.","oeffnungszeiten_schalter_mo":"n.a.","oeffnungszeiten_schalter_sa":"n.a.","oeffnungszeiten_schalter_so":"n.a.","ort":"Zürich","plz":"8005","poi_id":"wcm7345","postadresse":null,"publish_internet":"1","strasse":null,"suchen":"Toilette, Toiletten","tel":"+41 44 412 43 65","tel2":null,"www":"https://www.stadt-zuerich.ch/zueriwc","zahlungsmittel_internet":"NULL;NULL;","zahlungsmittel_schalter":"NULL;NULL;","zahlungsmittel_telefon":"NULL;NULL;","zvv_label":"Mobiles WC Emilie-Lieberherr-Platz","zvv_link":"https://www.zvv.ch/de/fahrplan-und-informationen/fahrplan.html?toname=Zürich, Johannesgasse 26"},"type":"Feature"}
 ,{"geometry":{"coordinates":[8.535578,47.385642],"type":"Point"},"id":"poi_zueriwc_mobil_view.20","properties":{"adr_inter":"","adresse":"Mobiles WC Lettenareal","adrzus_int":"","behindertenparkplatz":"0","bemerkung":"Die mobile WC-Anlagen sind jeweils von Anfang April bis Ende Oktober offen.","ccmail":"","da":"Umwelt- und Gesundheitsschutz","datum":"202511061639","datum_cms":null,"dep":"Gesundheits- und Umweltdepartement (GUD)","editor":"geoang","erforderlichedokumente":"","fax":"","geometrie_gdo":null,"hausnummer":"","hindernisfreiheit":"0__","infrastruktur":";Komposttoiletten<br>Ergänzend zum ZüriWC Lettenareal<br>April bis Oktober","isbetriebsferien_gebaeude":"1","isbetriebsferien_schalter":"0","kategorie":"Mobile Toiletten (nicht rollstuhlgängig)","mail":"ugz-zueriwc@zuerich.ch","name":"Mobiles WC Lettenareal","namenzus":"Oberer Letten","objectid":20,"oeffnungszeiten_gebaeude_di":"n.a.","oeffnungszeiten_gebaeude_do":"n.a.","oeffnungszeiten_gebaeude_fr":"n.a.","oeffnungszeiten_gebaeude_mi":"n.a.","oeffnungszeiten_gebaeude_mo":"n.a.","oeffnungszeiten_gebaeude_sa":"n.a.","oeffnungszeiten_gebaeude_so":"n.a.","oeffnungszeiten_schalter_di":"n.a.","oeffnungszeiten_schalter_do":"n.a.","oeffnungszeiten_schalter_fr":"n.a.","oeffnungszeiten_schalter_mi":"n.a.","oeffnungszeiten_schalter_mo":"n.a.","oeffnungszeiten_schalter_sa":"n.a.","oeffnungszeiten_schalter_so":"n.a.","ort":"Zürich","plz":"8006","poi_id":"wcm11627","postadresse":"","publish_internet":"1","strasse":"","suchen":"Toilette, Toiletten","tel":"+41 44 412 43 65","tel2":"","www":"https://www.stadt-zuerich.ch/zueriwc","zahlungsmittel_internet":"NULL;NULL;","zahlungsmittel_schalter":"NULL;NULL;","zahlungsmittel_telefon":"NULL;NULL;","zvv_label":"Mobiles WC Lettenareal","zvv_link":"https://www.zvv.ch/de/fahrplan-und-informationen/fahrplan.html?tolat=47.3856384608525&tolon=8.53557708870844&toname="},"type":"Feature"}
 ]
}